{
  "type": "FeatureCollection",
  "name": "MultiTrail demo – Malá Fatra",
  "features": [
    {
      "type": "Feature",
      "properties": {
        "name": "NP Malá Fatra – hrebeňová zóna",
        "kind": "area",
        "protection": "national-park",
        "area_km2": 42.5
      },
      "geometry": {
        "type": "Polygon",
        "coordinates": [
          [
            [18.9650, 49.1720],
            [19.0980, 49.1690],
            [19.1240, 49.1980],
            [19.0850, 49.2260],
            [18.9980, 49.2180],
            [18.9520, 49.1930],
            [18.9650, 49.1720]
          ]
        ]
      }
    },
    {
      "type": "Feature",
      "properties": {
        "name": "Vrátna dolina – lúčna enkláva",
        "kind": "area",
        "protection": "buffer-zone",
        "area_km2": 3.1
      },
      "geometry": {
        "type": "Polygon",
        "coordinates": [
          [
            [19.0280, 49.2060],
            [19.0560, 49.2050],
            [19.0600, 49.2180],
            [19.0320, 49.2200],
            [19.0280, 49.2060]
          ]
        ]
      }
    },
    {
      "type": "Feature",
      "properties": {
        "name": "Hrebeňovka: Snilovské sedlo – Poludňový grúň",
        "kind": "trail",
        "marking": "červená",
        "difficulty": "middle",
        "distance_km": 6.4,
        "ascent_m": 420,
        "descent_m": 380,
        "duration_min": 195
      },
      "geometry": {
        "type": "LineString",
        "coordinates": [
          [19.0031, 49.1878],
          [19.0110, 49.1930],
          [19.0169, 49.1965],
          [19.0248, 49.1948],
          [19.0345, 49.1932],
          [19.0407, 49.1899],
          [19.0498, 49.1886],
          [19.0631, 49.1875],
          [19.0712, 49.1902]
        ]
      }
    },
    {
      "type": "Feature",
      "properties": {
        "name": "Zostup do Štefanovej",
        "kind": "trail",
        "marking": "žltá",
        "difficulty": "easy",
        "distance_km": 3.2,
        "ascent_m": 15,
        "descent_m": 610,
        "duration_min": 90
      },
      "geometry": {
        "type": "LineString",
        "coordinates": [
          [19.0631, 49.1875],
          [19.0605, 49.1948],
          [19.0578, 49.2016],
          [19.0522, 49.2074],
          [19.0470, 49.2118]
        ]
      }
    },
    {
      "type": "Feature",
      "properties": {
        "name": "Veľký Kriváň",
        "kind": "peak",
        "ele_m": 1709
      },
      "geometry": {
        "type": "Point",
        "coordinates": [19.0169, 49.1965]
      }
    },
    {
      "type": "Feature",
      "properties": {
        "name": "Chleb",
        "kind": "peak",
        "ele_m": 1646
      },
      "geometry": {
        "type": "Point",
        "coordinates": [19.0407, 49.1899]
      }
    },
    {
      "type": "Feature",
      "properties": {
        "name": "Poludňový grúň",
        "kind": "peak",
        "ele_m": 1460
      },
      "geometry": {
        "type": "Point",
        "coordinates": [19.0631, 49.1875]
      }
    },
    {
      "type": "Feature",
      "properties": {
        "name": "Chata Vrátna",
        "kind": "hut",
        "ele_m": 750,
        "water": true
      },
      "geometry": {
        "type": "Point",
        "coordinates": [19.0470, 49.2118]
      }
    }
  ]
}
