{
  "type": "FeatureCollection",
  "features": [
    {
      "type": "Feature",
      "properties": {
        "name": "Hrebeňovka: Snilovské sedlo – Poludňový grúň",
        "kind": "trail",
        "marking": "červená",
        "difficulty": "middle",
        "distance_km": 6.4,
        "ascent_m": 420,
        "descent_m": 380,
        "duration_min": 195
      },
      "geometry": {
        "type": "LineString",
        "coordinates": [
          [19.0031, 49.1878],
          [19.011, 49.193],
          [19.0169, 49.1965],
          [19.0248, 49.1948],
          [19.0345, 49.1932],
          [19.0407, 49.1899],
          [19.0498, 49.1886],
          [19.0631, 49.1875],
          [19.0712, 49.1902]
        ]
      }
    },
    {
      "type": "Feature",
      "properties": {
        "name": "Zostup do Štefanovej",
        "kind": "trail",
        "marking": "žltá",
        "difficulty": "easy",
        "distance_km": 3.2,
        "ascent_m": 15,
        "descent_m": 610,
        "duration_min": 90
      },
      "geometry": {
        "type": "LineString",
        "coordinates": [
          [19.0631, 49.1875],
          [19.0605, 49.1948],
          [19.0578, 49.2016],
          [19.0522, 49.2074],
          [19.047, 49.2118]
        ]
      }
    },
    {
      "type": "Feature",
      "properties": {
        "name": "Veľký Kriváň",
        "kind": "peak",
        "ele_m": 1709
      },
      "geometry": {
        "type": "Point",
        "coordinates": [19.0169, 49.1965]
      }
    },
    {
      "type": "Feature",
      "properties": {
        "name": "Chleb",
        "kind": "peak",
        "ele_m": 1646
      },
      "geometry": {
        "type": "Point",
        "coordinates": [19.0407, 49.1899]
      }
    },
    {
      "type": "Feature",
      "properties": {
        "name": "Poludňový grúň",
        "kind": "peak",
        "ele_m": 1460
      },
      "geometry": {
        "type": "Point",
        "coordinates": [19.0631, 49.1875]
      }
    },
    {
      "type": "Feature",
      "properties": {
        "name": "Chata Vrátna",
        "kind": "hut",
        "ele_m": 750,
        "water": true
      },
      "geometry": {
        "type": "Point",
        "coordinates": [19.047, 49.2118]
      }
    }
  ]
}
