<?xml version="1.0" encoding="utf-8"?>
<gpx xmlns="http://www.topografix.com/GPX/1/1" version="1.1" creator="https://mapy.com/">
	<trk>
		<name>Rajec - Považská Bystrica, žst.</name>
		<trkseg>
			<trkpt lat="49.090269" lon="18.643887">
				<ele>450.000000</ele>
			</trkpt>
			<trkpt lat="49.090269" lon="18.643861">
				<ele>450.000000</ele>
			</trkpt>
			<trkpt lat="49.090086" lon="18.643797">
				<ele>451.000000</ele>
			</trkpt>
			<trkpt lat="49.090092" lon="18.643761">
				<ele>451.000000</ele>
			</trkpt>
			<trkpt lat="49.090151" lon="18.643419">
				<ele>452.000000</ele>
			</trkpt>
			<trkpt lat="49.089845" lon="18.643312">
				<ele>452.000000</ele>
			</trkpt>
			<trkpt lat="49.089092" lon="18.643060">
				<ele>454.000000</ele>
			</trkpt>
			<trkpt lat="49.088621" lon="18.642899">
				<ele>455.000000</ele>
			</trkpt>
			<trkpt lat="49.088498" lon="18.642836">
				<ele>455.000000</ele>
			</trkpt>
			<trkpt lat="49.088427" lon="18.642639">
				<ele>455.000000</ele>
			</trkpt>
			<trkpt lat="49.088386" lon="18.642413">
				<ele>455.000000</ele>
			</trkpt>
			<trkpt lat="49.088392" lon="18.642342">
				<ele>455.000000</ele>
			</trkpt>
			<trkpt lat="49.088563" lon="18.641327">
				<ele>455.000000</ele>
			</trkpt>
			<trkpt lat="49.088621" lon="18.640976">
				<ele>455.000000</ele>
			</trkpt>
			<trkpt lat="49.088710" lon="18.640698">
				<ele>451.000000</ele>
			</trkpt>
			<trkpt lat="49.088751" lon="18.640626">
				<ele>450.000000</ele>
			</trkpt>
			<trkpt lat="49.088804" lon="18.640410">
				<ele>450.000000</ele>
			</trkpt>
			<trkpt lat="49.088833" lon="18.640293">
				<ele>450.000000</ele>
			</trkpt>
			<trkpt lat="49.088851" lon="18.640240">
				<ele>450.000000</ele>
			</trkpt>
			<trkpt lat="49.088721" lon="18.640024">
				<ele>450.000000</ele>
			</trkpt>
			<trkpt lat="49.088721" lon="18.639754">
				<ele>450.000000</ele>
			</trkpt>
			<trkpt lat="49.088739" lon="18.639486">
				<ele>450.000000</ele>
			</trkpt>
			<trkpt lat="49.088816" lon="18.638947">
				<ele>450.000000</ele>
			</trkpt>
			<trkpt lat="49.088845" lon="18.638892">
				<ele>450.000000</ele>
			</trkpt>
			<trkpt lat="49.088892" lon="18.638847">
				<ele>450.000000</ele>
			</trkpt>
			<trkpt lat="49.089010" lon="18.638821">
				<ele>450.000000</ele>
			</trkpt>
			<trkpt lat="49.089751" lon="18.638847">
				<ele>450.000000</ele>
			</trkpt>
			<trkpt lat="49.089781" lon="18.638740">
				<ele>450.000000</ele>
			</trkpt>
			<trkpt lat="49.089963" lon="18.638622">
				<ele>452.000000</ele>
			</trkpt>
			<trkpt lat="49.089934" lon="18.638551">
				<ele>452.000000</ele>
			</trkpt>
			<trkpt lat="49.089915" lon="18.638471">
				<ele>452.000000</ele>
			</trkpt>
			<trkpt lat="49.089892" lon="18.638389">
				<ele>452.000000</ele>
			</trkpt>
			<trkpt lat="49.089875" lon="18.638318">
				<ele>452.000000</ele>
			</trkpt>
			<trkpt lat="49.089862" lon="18.638218">
				<ele>452.000000</ele>
			</trkpt>
			<trkpt lat="49.089857" lon="18.638111">
				<ele>452.000000</ele>
			</trkpt>
			<trkpt lat="49.089851" lon="18.638012">
				<ele>452.000000</ele>
			</trkpt>
			<trkpt lat="49.089857" lon="18.637850">
				<ele>452.000000</ele>
			</trkpt>
			<trkpt lat="49.089886" lon="18.637643">
				<ele>452.000000</ele>
			</trkpt>
			<trkpt lat="49.089898" lon="18.637553">
				<ele>452.000000</ele>
			</trkpt>
			<trkpt lat="49.089910" lon="18.637473">
				<ele>452.000000</ele>
			</trkpt>
			<trkpt lat="49.089963" lon="18.637140">
				<ele>452.000000</ele>
			</trkpt>
			<trkpt lat="49.090004" lon="18.636844">
				<ele>452.000000</ele>
			</trkpt>
			<trkpt lat="49.090040" lon="18.636547">
				<ele>452.000000</ele>
			</trkpt>
			<trkpt lat="49.090063" lon="18.636197">
				<ele>453.000000</ele>
			</trkpt>
			<trkpt lat="49.090074" lon="18.636035">
				<ele>453.000000</ele>
			</trkpt>
			<trkpt lat="49.090104" lon="18.635632">
				<ele>453.000000</ele>
			</trkpt>
			<trkpt lat="49.090116" lon="18.635469">
				<ele>453.000000</ele>
			</trkpt>
			<trkpt lat="49.090169" lon="18.634662">
				<ele>453.000000</ele>
			</trkpt>
			<trkpt lat="49.090174" lon="18.634553">
				<ele>453.000000</ele>
			</trkpt>
			<trkpt lat="49.090180" lon="18.634500">
				<ele>453.000000</ele>
			</trkpt>
			<trkpt lat="49.090227" lon="18.634500">
				<ele>453.000000</ele>
			</trkpt>
			<trkpt lat="49.090269" lon="18.634509">
				<ele>453.000000</ele>
			</trkpt>
			<trkpt lat="49.090275" lon="18.634463">
				<ele>453.000000</ele>
			</trkpt>
			<trkpt lat="49.090339" lon="18.633322">
				<ele>454.000000</ele>
			</trkpt>
			<trkpt lat="49.090363" lon="18.633054">
				<ele>454.000000</ele>
			</trkpt>
			<trkpt lat="49.090369" lon="18.632991">
				<ele>454.000000</ele>
			</trkpt>
			<trkpt lat="49.090392" lon="18.632928">
				<ele>454.000000</ele>
			</trkpt>
			<trkpt lat="49.090422" lon="18.632874">
				<ele>454.000000</ele>
			</trkpt>
			<trkpt lat="49.090463" lon="18.632802">
				<ele>454.000000</ele>
			</trkpt>
			<trkpt lat="49.090551" lon="18.632685">
				<ele>455.000000</ele>
			</trkpt>
			<trkpt lat="49.090874" lon="18.632362">
				<ele>455.000000</ele>
			</trkpt>
			<trkpt lat="49.090945" lon="18.632280">
				<ele>455.000000</ele>
			</trkpt>
			<trkpt lat="49.090980" lon="18.632236">
				<ele>455.000000</ele>
			</trkpt>
			<trkpt lat="49.091051" lon="18.632129">
				<ele>455.000000</ele>
			</trkpt>
			<trkpt lat="49.091110" lon="18.632020">
				<ele>455.000000</ele>
			</trkpt>
			<trkpt lat="49.091181" lon="18.631867">
				<ele>455.000000</ele>
			</trkpt>
			<trkpt lat="49.091222" lon="18.631742">
				<ele>455.000000</ele>
			</trkpt>
			<trkpt lat="49.091257" lon="18.631607">
				<ele>456.000000</ele>
			</trkpt>
			<trkpt lat="49.091286" lon="18.631473">
				<ele>456.000000</ele>
			</trkpt>
			<trkpt lat="49.091304" lon="18.631301">
				<ele>456.000000</ele>
			</trkpt>
			<trkpt lat="49.091310" lon="18.631176">
				<ele>456.000000</ele>
			</trkpt>
			<trkpt lat="49.091245" lon="18.631167">
				<ele>456.000000</ele>
			</trkpt>
			<trkpt lat="49.091257" lon="18.631050">
				<ele>456.000000</ele>
			</trkpt>
			<trkpt lat="49.091257" lon="18.630951">
				<ele>456.000000</ele>
			</trkpt>
			<trkpt lat="49.091257" lon="18.630825">
				<ele>456.000000</ele>
			</trkpt>
			<trkpt lat="49.091251" lon="18.630672">
				<ele>456.000000</ele>
			</trkpt>
			<trkpt lat="49.091239" lon="18.630492">
				<ele>456.000000</ele>
			</trkpt>
			<trkpt lat="49.091210" lon="18.630331">
				<ele>456.000000</ele>
			</trkpt>
			<trkpt lat="49.091169" lon="18.630134">
				<ele>457.000000</ele>
			</trkpt>
			<trkpt lat="49.091075" lon="18.629900">
				<ele>457.000000</ele>
			</trkpt>
			<trkpt lat="49.091169" lon="18.629873">
				<ele>457.000000</ele>
			</trkpt>
			<trkpt lat="49.091275" lon="18.629846">
				<ele>457.000000</ele>
			</trkpt>
			<trkpt lat="49.091086" lon="18.629630">
				<ele>457.000000</ele>
			</trkpt>
			<trkpt lat="49.090974" lon="18.629513">
				<ele>457.000000</ele>
			</trkpt>
			<trkpt lat="49.090721" lon="18.629244">
				<ele>458.000000</ele>
			</trkpt>
			<trkpt lat="49.090668" lon="18.629190">
				<ele>458.000000</ele>
			</trkpt>
			<trkpt lat="49.089039" lon="18.627502">
				<ele>460.000000</ele>
			</trkpt>
			<trkpt lat="49.087562" lon="18.625911">
				<ele>460.000000</ele>
			</trkpt>
			<trkpt lat="49.087045" lon="18.625310">
				<ele>460.000000</ele>
			</trkpt>
			<trkpt lat="49.086633" lon="18.624762">
				<ele>460.000000</ele>
			</trkpt>
			<trkpt lat="49.086769" lon="18.624007">
				<ele>460.000000</ele>
			</trkpt>
			<trkpt lat="49.086822" lon="18.623710">
				<ele>460.000000</ele>
			</trkpt>
			<trkpt lat="49.086845" lon="18.623567">
				<ele>460.000000</ele>
			</trkpt>
			<trkpt lat="49.086874" lon="18.623387">
				<ele>460.000000</ele>
			</trkpt>
			<trkpt lat="49.087074" lon="18.622219">
				<ele>460.000000</ele>
			</trkpt>
			<trkpt lat="49.087204" lon="18.621815">
				<ele>460.000000</ele>
			</trkpt>
			<trkpt lat="49.087498" lon="18.621133">
				<ele>460.000000</ele>
			</trkpt>
			<trkpt lat="49.087762" lon="18.620647">
				<ele>460.000000</ele>
			</trkpt>
			<trkpt lat="49.088033" lon="18.620198">
				<ele>461.000000</ele>
			</trkpt>
			<trkpt lat="49.088280" lon="18.619812">
				<ele>462.000000</ele>
			</trkpt>
			<trkpt lat="49.088415" lon="18.619578">
				<ele>462.000000</ele>
			</trkpt>
			<trkpt lat="49.088515" lon="18.619355">
				<ele>462.000000</ele>
			</trkpt>
			<trkpt lat="49.088621" lon="18.619013">
				<ele>463.000000</ele>
			</trkpt>
			<trkpt lat="49.088975" lon="18.617602">
				<ele>465.000000</ele>
			</trkpt>
			<trkpt lat="49.089051" lon="18.617414">
				<ele>466.000000</ele>
			</trkpt>
			<trkpt lat="49.089310" lon="18.616911">
				<ele>467.000000</ele>
			</trkpt>
			<trkpt lat="49.089457" lon="18.616632">
				<ele>467.000000</ele>
			</trkpt>
			<trkpt lat="49.089792" lon="18.616076">
				<ele>469.000000</ele>
			</trkpt>
			<trkpt lat="49.089898" lon="18.615940">
				<ele>469.000000</ele>
			</trkpt>
			<trkpt lat="49.090316" lon="18.615464">
				<ele>470.000000</ele>
			</trkpt>
			<trkpt lat="49.090575" lon="18.615221">
				<ele>471.000000</ele>
			</trkpt>
			<trkpt lat="49.090851" lon="18.615024">
				<ele>472.000000</ele>
			</trkpt>
			<trkpt lat="49.091063" lon="18.614907">
				<ele>472.000000</ele>
			</trkpt>
			<trkpt lat="49.091222" lon="18.614854">
				<ele>473.000000</ele>
			</trkpt>
			<trkpt lat="49.091322" lon="18.614781">
				<ele>473.000000</ele>
			</trkpt>
			<trkpt lat="49.091710" lon="18.614234">
				<ele>474.000000</ele>
			</trkpt>
			<trkpt lat="49.091957" lon="18.613875">
				<ele>475.000000</ele>
			</trkpt>
			<trkpt lat="49.092610" lon="18.612581">
				<ele>477.000000</ele>
			</trkpt>
			<trkpt lat="49.092781" lon="18.612257">
				<ele>478.000000</ele>
			</trkpt>
			<trkpt lat="49.092975" lon="18.611978">
				<ele>479.000000</ele>
			</trkpt>
			<trkpt lat="49.093057" lon="18.611818">
				<ele>479.000000</ele>
			</trkpt>
			<trkpt lat="49.093151" lon="18.611701">
				<ele>479.000000</ele>
			</trkpt>
			<trkpt lat="49.093286" lon="18.611565">
				<ele>480.000000</ele>
			</trkpt>
			<trkpt lat="49.093357" lon="18.611502">
				<ele>480.000000</ele>
			</trkpt>
			<trkpt lat="49.093386" lon="18.611485">
				<ele>480.000000</ele>
			</trkpt>
			<trkpt lat="49.093475" lon="18.611449">
				<ele>480.000000</ele>
			</trkpt>
			<trkpt lat="49.093587" lon="18.611439">
				<ele>481.000000</ele>
			</trkpt>
			<trkpt lat="49.093704" lon="18.611458">
				<ele>481.000000</ele>
			</trkpt>
			<trkpt lat="49.094292" lon="18.611619">
				<ele>482.000000</ele>
			</trkpt>
			<trkpt lat="49.094851" lon="18.611852">
				<ele>484.000000</ele>
			</trkpt>
			<trkpt lat="49.095251" lon="18.612078">
				<ele>485.000000</ele>
			</trkpt>
			<trkpt lat="49.095533" lon="18.612194">
				<ele>486.000000</ele>
			</trkpt>
			<trkpt lat="49.095628" lon="18.612231">
				<ele>486.000000</ele>
			</trkpt>
			<trkpt lat="49.096222" lon="18.612544">
				<ele>488.000000</ele>
			</trkpt>
			<trkpt lat="49.096404" lon="18.612527">
				<ele>488.000000</ele>
			</trkpt>
			<trkpt lat="49.096622" lon="18.612491">
				<ele>489.000000</ele>
			</trkpt>
			<trkpt lat="49.096804" lon="18.612374">
				<ele>489.000000</ele>
			</trkpt>
			<trkpt lat="49.096927" lon="18.612347">
				<ele>490.000000</ele>
			</trkpt>
			<trkpt lat="49.097022" lon="18.612302">
				<ele>490.000000</ele>
			</trkpt>
			<trkpt lat="49.097469" lon="18.611961">
				<ele>491.000000</ele>
			</trkpt>
			<trkpt lat="49.097857" lon="18.611646">
				<ele>492.000000</ele>
			</trkpt>
			<trkpt lat="49.098039" lon="18.611502">
				<ele>493.000000</ele>
			</trkpt>
			<trkpt lat="49.098204" lon="18.611332">
				<ele>493.000000</ele>
			</trkpt>
			<trkpt lat="49.098245" lon="18.611286">
				<ele>493.000000</ele>
			</trkpt>
			<trkpt lat="49.098568" lon="18.611026">
				<ele>494.000000</ele>
			</trkpt>
			<trkpt lat="49.098674" lon="18.610946">
				<ele>495.000000</ele>
			</trkpt>
			<trkpt lat="49.098945" lon="18.610694">
				<ele>495.000000</ele>
			</trkpt>
			<trkpt lat="49.099075" lon="18.610560">
				<ele>496.000000</ele>
			</trkpt>
			<trkpt lat="49.099204" lon="18.610397">
				<ele>496.000000</ele>
			</trkpt>
			<trkpt lat="49.099245" lon="18.610334">
				<ele>496.000000</ele>
			</trkpt>
			<trkpt lat="49.099498" lon="18.609858">
				<ele>497.000000</ele>
			</trkpt>
			<trkpt lat="49.099704" lon="18.609518">
				<ele>498.000000</ele>
			</trkpt>
			<trkpt lat="49.099856" lon="18.609194">
				<ele>499.000000</ele>
			</trkpt>
			<trkpt lat="49.099862" lon="18.608988">
				<ele>499.000000</ele>
			</trkpt>
			<trkpt lat="49.099839" lon="18.608781">
				<ele>499.000000</ele>
			</trkpt>
			<trkpt lat="49.099733" lon="18.607397">
				<ele>502.000000</ele>
			</trkpt>
			<trkpt lat="49.099604" lon="18.606158">
				<ele>504.000000</ele>
			</trkpt>
			<trkpt lat="49.099563" lon="18.605600">
				<ele>505.000000</ele>
			</trkpt>
			<trkpt lat="49.099551" lon="18.604963">
				<ele>507.000000</ele>
			</trkpt>
			<trkpt lat="49.099563" lon="18.604091">
				<ele>508.000000</ele>
			</trkpt>
			<trkpt lat="49.099569" lon="18.603948">
				<ele>508.000000</ele>
			</trkpt>
			<trkpt lat="49.099569" lon="18.603732">
				<ele>509.000000</ele>
			</trkpt>
			<trkpt lat="49.099610" lon="18.602762">
				<ele>511.000000</ele>
			</trkpt>
			<trkpt lat="49.099622" lon="18.601954">
				<ele>513.000000</ele>
			</trkpt>
			<trkpt lat="49.099657" lon="18.601738">
				<ele>514.000000</ele>
			</trkpt>
			<trkpt lat="49.099751" lon="18.601594">
				<ele>514.000000</ele>
			</trkpt>
			<trkpt lat="49.100145" lon="18.601162">
				<ele>516.000000</ele>
			</trkpt>
			<trkpt lat="49.100321" lon="18.600912">
				<ele>517.000000</ele>
			</trkpt>
			<trkpt lat="49.100392" lon="18.600678">
				<ele>518.000000</ele>
			</trkpt>
			<trkpt lat="49.100445" lon="18.600382">
				<ele>519.000000</ele>
			</trkpt>
			<trkpt lat="49.100469" lon="18.600193">
				<ele>519.000000</ele>
			</trkpt>
			<trkpt lat="49.100533" lon="18.599690">
				<ele>520.000000</ele>
			</trkpt>
			<trkpt lat="49.100586" lon="18.599447">
				<ele>521.000000</ele>
			</trkpt>
			<trkpt lat="49.100668" lon="18.599187">
				<ele>521.000000</ele>
			</trkpt>
			<trkpt lat="49.101015" lon="18.597866">
				<ele>523.000000</ele>
			</trkpt>
			<trkpt lat="49.101145" lon="18.597470">
				<ele>524.000000</ele>
			</trkpt>
			<trkpt lat="49.101204" lon="18.597346">
				<ele>524.000000</ele>
			</trkpt>
			<trkpt lat="49.101274" lon="18.597237">
				<ele>524.000000</ele>
			</trkpt>
			<trkpt lat="49.101368" lon="18.597147">
				<ele>525.000000</ele>
			</trkpt>
			<trkpt lat="49.101468" lon="18.597094">
				<ele>525.000000</ele>
			</trkpt>
			<trkpt lat="49.101639" lon="18.597022">
				<ele>525.000000</ele>
			</trkpt>
			<trkpt lat="49.101804" lon="18.596967">
				<ele>526.000000</ele>
			</trkpt>
			<trkpt lat="49.102174" lon="18.596904">
				<ele>526.000000</ele>
			</trkpt>
			<trkpt lat="49.102280" lon="18.596870">
				<ele>527.000000</ele>
			</trkpt>
			<trkpt lat="49.102368" lon="18.596815">
				<ele>527.000000</ele>
			</trkpt>
			<trkpt lat="49.102621" lon="18.596887">
				<ele>527.000000</ele>
			</trkpt>
			<trkpt lat="49.102668" lon="18.596904">
				<ele>528.000000</ele>
			</trkpt>
			<trkpt lat="49.102768" lon="18.596636">
				<ele>528.000000</ele>
			</trkpt>
			<trkpt lat="49.102827" lon="18.596546">
				<ele>528.000000</ele>
			</trkpt>
			<trkpt lat="49.102897" lon="18.596384">
				<ele>529.000000</ele>
			</trkpt>
			<trkpt lat="49.102968" lon="18.596187">
				<ele>529.000000</ele>
			</trkpt>
			<trkpt lat="49.103015" lon="18.595988">
				<ele>529.000000</ele>
			</trkpt>
			<trkpt lat="49.103062" lon="18.595828">
				<ele>529.000000</ele>
			</trkpt>
			<trkpt lat="49.103180" lon="18.595594">
				<ele>530.000000</ele>
			</trkpt>
			<trkpt lat="49.103403" lon="18.595459">
				<ele>531.000000</ele>
			</trkpt>
			<trkpt lat="49.103474" lon="18.595414">
				<ele>532.000000</ele>
			</trkpt>
			<trkpt lat="49.103585" lon="18.595279">
				<ele>532.000000</ele>
			</trkpt>
			<trkpt lat="49.103780" lon="18.594759">
				<ele>535.000000</ele>
			</trkpt>
			<trkpt lat="49.104003" lon="18.594273">
				<ele>537.000000</ele>
			</trkpt>
			<trkpt lat="49.104338" lon="18.594004">
				<ele>540.000000</ele>
			</trkpt>
			<trkpt lat="49.104703" lon="18.593761">
				<ele>543.000000</ele>
			</trkpt>
			<trkpt lat="49.104886" lon="18.593671">
				<ele>544.000000</ele>
			</trkpt>
			<trkpt lat="49.105444" lon="18.593348">
				<ele>549.000000</ele>
			</trkpt>
			<trkpt lat="49.106920" lon="18.592764">
				<ele>563.000000</ele>
			</trkpt>
			<trkpt lat="49.107120" lon="18.592709">
				<ele>566.000000</ele>
			</trkpt>
			<trkpt lat="49.107620" lon="18.592585">
				<ele>575.000000</ele>
			</trkpt>
			<trkpt lat="49.107937" lon="18.592503">
				<ele>581.000000</ele>
			</trkpt>
			<trkpt lat="49.108249" lon="18.592440">
				<ele>587.000000</ele>
			</trkpt>
			<trkpt lat="49.108743" lon="18.592323">
				<ele>597.000000</ele>
			</trkpt>
			<trkpt lat="49.108996" lon="18.592270">
				<ele>603.000000</ele>
			</trkpt>
			<trkpt lat="49.109060" lon="18.592270">
				<ele>604.000000</ele>
			</trkpt>
			<trkpt lat="49.109096" lon="18.592296">
				<ele>605.000000</ele>
			</trkpt>
			<trkpt lat="49.109137" lon="18.592315">
				<ele>606.000000</ele>
			</trkpt>
			<trkpt lat="49.109202" lon="18.592342">
				<ele>607.000000</ele>
			</trkpt>
			<trkpt lat="49.109266" lon="18.592369">
				<ele>608.000000</ele>
			</trkpt>
			<trkpt lat="49.109366" lon="18.592432">
				<ele>610.000000</ele>
			</trkpt>
			<trkpt lat="49.109472" lon="18.592522">
				<ele>612.000000</ele>
			</trkpt>
			<trkpt lat="49.109655" lon="18.592638">
				<ele>615.000000</ele>
			</trkpt>
			<trkpt lat="49.109778" lon="18.592646">
				<ele>617.000000</ele>
			</trkpt>
			<trkpt lat="49.110031" lon="18.592638">
				<ele>621.000000</ele>
			</trkpt>
			<trkpt lat="49.110084" lon="18.592629">
				<ele>622.000000</ele>
			</trkpt>
			<trkpt lat="49.110272" lon="18.592675">
				<ele>626.000000</ele>
			</trkpt>
			<trkpt lat="49.110584" lon="18.592764">
				<ele>632.000000</ele>
			</trkpt>
			<trkpt lat="49.110819" lon="18.592916">
				<ele>636.000000</ele>
			</trkpt>
			<trkpt lat="49.110890" lon="18.592944">
				<ele>637.000000</ele>
			</trkpt>
			<trkpt lat="49.110919" lon="18.592935">
				<ele>637.000000</ele>
			</trkpt>
			<trkpt lat="49.110960" lon="18.592916">
				<ele>638.000000</ele>
			</trkpt>
			<trkpt lat="49.111083" lon="18.592782">
				<ele>640.000000</ele>
			</trkpt>
			<trkpt lat="49.111189" lon="18.592683">
				<ele>641.000000</ele>
			</trkpt>
			<trkpt lat="49.111342" lon="18.592549">
				<ele>642.000000</ele>
			</trkpt>
			<trkpt lat="49.111607" lon="18.592378">
				<ele>643.000000</ele>
			</trkpt>
			<trkpt lat="49.111871" lon="18.592350">
				<ele>645.000000</ele>
			</trkpt>
			<trkpt lat="49.112060" lon="18.592323">
				<ele>646.000000</ele>
			</trkpt>
			<trkpt lat="49.112277" lon="18.592432">
				<ele>647.000000</ele>
			</trkpt>
			<trkpt lat="49.112548" lon="18.592378">
				<ele>648.000000</ele>
			</trkpt>
			<trkpt lat="49.112759" lon="18.592225">
				<ele>650.000000</ele>
			</trkpt>
			<trkpt lat="49.112830" lon="18.592144">
				<ele>651.000000</ele>
			</trkpt>
			<trkpt lat="49.112883" lon="18.591983">
				<ele>652.000000</ele>
			</trkpt>
			<trkpt lat="49.112971" lon="18.591866">
				<ele>654.000000</ele>
			</trkpt>
			<trkpt lat="49.113024" lon="18.591704">
				<ele>655.000000</ele>
			</trkpt>
			<trkpt lat="49.113177" lon="18.591308">
				<ele>659.000000</ele>
			</trkpt>
			<trkpt lat="49.113294" lon="18.591128">
				<ele>663.000000</ele>
			</trkpt>
			<trkpt lat="49.113424" lon="18.590985">
				<ele>666.000000</ele>
			</trkpt>
			<trkpt lat="49.113782" lon="18.590652">
				<ele>670.000000</ele>
			</trkpt>
			<trkpt lat="49.113976" lon="18.590446">
				<ele>670.000000</ele>
			</trkpt>
			<trkpt lat="49.113994" lon="18.590536">
				<ele>670.000000</ele>
			</trkpt>
			<trkpt lat="49.114024" lon="18.590554">
				<ele>670.000000</ele>
			</trkpt>
			<trkpt lat="49.114053" lon="18.590572">
				<ele>670.000000</ele>
			</trkpt>
			<trkpt lat="49.114106" lon="18.590599">
				<ele>670.000000</ele>
			</trkpt>
			<trkpt lat="49.114224" lon="18.590591">
				<ele>670.000000</ele>
			</trkpt>
			<trkpt lat="49.114747" lon="18.590734">
				<ele>668.000000</ele>
			</trkpt>
			<trkpt lat="49.115065" lon="18.590949">
				<ele>665.000000</ele>
			</trkpt>
			<trkpt lat="49.115364" lon="18.591156">
				<ele>663.000000</ele>
			</trkpt>
			<trkpt lat="49.115687" lon="18.591164">
				<ele>660.000000</ele>
			</trkpt>
			<trkpt lat="49.116017" lon="18.591120">
				<ele>658.000000</ele>
			</trkpt>
			<trkpt lat="49.116422" lon="18.591012">
				<ele>657.000000</ele>
			</trkpt>
			<trkpt lat="49.116640" lon="18.591004">
				<ele>656.000000</ele>
			</trkpt>
			<trkpt lat="49.116705" lon="18.590985">
				<ele>656.000000</ele>
			</trkpt>
			<trkpt lat="49.117316" lon="18.590751">
				<ele>653.000000</ele>
			</trkpt>
			<trkpt lat="49.117516" lon="18.590671">
				<ele>652.000000</ele>
			</trkpt>
			<trkpt lat="49.117669" lon="18.590545">
				<ele>651.000000</ele>
			</trkpt>
			<trkpt lat="49.117816" lon="18.590446">
				<ele>651.000000</ele>
			</trkpt>
			<trkpt lat="49.118187" lon="18.589377">
				<ele>655.000000</ele>
			</trkpt>
			<trkpt lat="49.118234" lon="18.589170">
				<ele>656.000000</ele>
			</trkpt>
			<trkpt lat="49.118240" lon="18.589107">
				<ele>640.000000</ele>
			</trkpt>
			<trkpt lat="49.118268" lon="18.588910">
				<ele>639.000000</ele>
			</trkpt>
			<trkpt lat="49.118321" lon="18.588767">
				<ele>637.000000</ele>
			</trkpt>
			<trkpt lat="49.118398" lon="18.588658">
				<ele>635.000000</ele>
			</trkpt>
			<trkpt lat="49.118510" lon="18.588587">
				<ele>633.000000</ele>
			</trkpt>
			<trkpt lat="49.118639" lon="18.588551">
				<ele>630.000000</ele>
			</trkpt>
			<trkpt lat="49.118927" lon="18.588514">
				<ele>625.000000</ele>
			</trkpt>
			<trkpt lat="49.119186" lon="18.588514">
				<ele>623.000000</ele>
			</trkpt>
			<trkpt lat="49.119404" lon="18.588514">
				<ele>620.000000</ele>
			</trkpt>
			<trkpt lat="49.119744" lon="18.588425">
				<ele>616.000000</ele>
			</trkpt>
			<trkpt lat="49.120226" lon="18.588092">
				<ele>609.000000</ele>
			</trkpt>
			<trkpt lat="49.120532" lon="18.587814">
				<ele>603.000000</ele>
			</trkpt>
			<trkpt lat="49.120621" lon="18.587698">
				<ele>602.000000</ele>
			</trkpt>
			<trkpt lat="49.120768" lon="18.587472">
				<ele>599.000000</ele>
			</trkpt>
			<trkpt lat="49.120902" lon="18.587203">
				<ele>595.000000</ele>
			</trkpt>
			<trkpt lat="49.121067" lon="18.586880">
				<ele>591.000000</ele>
			</trkpt>
			<trkpt lat="49.121150" lon="18.586673">
				<ele>589.000000</ele>
			</trkpt>
			<trkpt lat="49.121226" lon="18.586547">
				<ele>588.000000</ele>
			</trkpt>
			<trkpt lat="49.121344" lon="18.586125">
				<ele>585.000000</ele>
			</trkpt>
			<trkpt lat="49.121443" lon="18.585595">
				<ele>581.000000</ele>
			</trkpt>
			<trkpt lat="49.121490" lon="18.585128">
				<ele>580.000000</ele>
			</trkpt>
			<trkpt lat="49.121637" lon="18.584427">
				<ele>580.000000</ele>
			</trkpt>
			<trkpt lat="49.121637" lon="18.584409">
				<ele>580.000000</ele>
			</trkpt>
			<trkpt lat="49.121679" lon="18.584130">
				<ele>580.000000</ele>
			</trkpt>
			<trkpt lat="49.121708" lon="18.583906">
				<ele>580.000000</ele>
			</trkpt>
			<trkpt lat="49.121790" lon="18.583287">
				<ele>580.000000</ele>
			</trkpt>
			<trkpt lat="49.121802" lon="18.583277">
				<ele>580.000000</ele>
			</trkpt>
			<trkpt lat="49.121890" lon="18.583062">
				<ele>580.000000</ele>
			</trkpt>
			<trkpt lat="49.121943" lon="18.582838">
				<ele>580.000000</ele>
			</trkpt>
			<trkpt lat="49.122184" lon="18.582335">
				<ele>584.000000</ele>
			</trkpt>
			<trkpt lat="49.122272" lon="18.581985">
				<ele>589.000000</ele>
			</trkpt>
			<trkpt lat="49.122302" lon="18.581796">
				<ele>591.000000</ele>
			</trkpt>
			<trkpt lat="49.122343" lon="18.581543">
				<ele>596.000000</ele>
			</trkpt>
			<trkpt lat="49.122343" lon="18.581041">
				<ele>604.000000</ele>
			</trkpt>
			<trkpt lat="49.122461" lon="18.580717">
				<ele>609.000000</ele>
			</trkpt>
			<trkpt lat="49.122431" lon="18.580394">
				<ele>611.000000</ele>
			</trkpt>
			<trkpt lat="49.122549" lon="18.579972">
				<ele>612.000000</ele>
			</trkpt>
			<trkpt lat="49.122608" lon="18.579612">
				<ele>613.000000</ele>
			</trkpt>
			<trkpt lat="49.122790" lon="18.579424">
				<ele>614.000000</ele>
			</trkpt>
			<trkpt lat="49.122848" lon="18.579253">
				<ele>614.000000</ele>
			</trkpt>
			<trkpt lat="49.122884" lon="18.579155">
				<ele>614.000000</ele>
			</trkpt>
			<trkpt lat="49.122901" lon="18.578920">
				<ele>615.000000</ele>
			</trkpt>
			<trkpt lat="49.123072" lon="18.578696">
				<ele>616.000000</ele>
			</trkpt>
			<trkpt lat="49.123219" lon="18.578561">
				<ele>616.000000</ele>
			</trkpt>
			<trkpt lat="49.123342" lon="18.578337">
				<ele>617.000000</ele>
			</trkpt>
			<trkpt lat="49.123448" lon="18.578247">
				<ele>618.000000</ele>
			</trkpt>
			<trkpt lat="49.123542" lon="18.578067">
				<ele>618.000000</ele>
			</trkpt>
			<trkpt lat="49.123660" lon="18.577834">
				<ele>619.000000</ele>
			</trkpt>
			<trkpt lat="49.123742" lon="18.577708">
				<ele>619.000000</ele>
			</trkpt>
			<trkpt lat="49.123783" lon="18.577492">
				<ele>620.000000</ele>
			</trkpt>
			<trkpt lat="49.123878" lon="18.577528">
				<ele>620.000000</ele>
			</trkpt>
			<trkpt lat="49.124136" lon="18.577322">
				<ele>623.000000</ele>
			</trkpt>
			<trkpt lat="49.124207" lon="18.577348">
				<ele>623.000000</ele>
			</trkpt>
			<trkpt lat="49.124324" lon="18.577277">
				<ele>624.000000</ele>
			</trkpt>
			<trkpt lat="49.124536" lon="18.576891">
				<ele>627.000000</ele>
			</trkpt>
			<trkpt lat="49.124594" lon="18.576738">
				<ele>628.000000</ele>
			</trkpt>
			<trkpt lat="49.124700" lon="18.576585">
				<ele>630.000000</ele>
			</trkpt>
			<trkpt lat="49.124794" lon="18.576432">
				<ele>631.000000</ele>
			</trkpt>
			<trkpt lat="49.124959" lon="18.576253">
				<ele>633.000000</ele>
			</trkpt>
			<trkpt lat="49.125300" lon="18.575930">
				<ele>637.000000</ele>
			</trkpt>
			<trkpt lat="49.125559" lon="18.575884">
				<ele>640.000000</ele>
			</trkpt>
			<trkpt lat="49.125694" lon="18.575830">
				<ele>640.000000</ele>
			</trkpt>
			<trkpt lat="49.125964" lon="18.575876">
				<ele>640.000000</ele>
			</trkpt>
			<trkpt lat="49.126100" lon="18.575830">
				<ele>640.000000</ele>
			</trkpt>
			<trkpt lat="49.126264" lon="18.575669">
				<ele>640.000000</ele>
			</trkpt>
			<trkpt lat="49.126381" lon="18.575408">
				<ele>638.000000</ele>
			</trkpt>
			<trkpt lat="49.126493" lon="18.575111">
				<ele>635.000000</ele>
			</trkpt>
			<trkpt lat="49.126740" lon="18.575067">
				<ele>632.000000</ele>
			</trkpt>
			<trkpt lat="49.127016" lon="18.575121">
				<ele>630.000000</ele>
			</trkpt>
			<trkpt lat="49.127363" lon="18.575085">
				<ele>629.000000</ele>
			</trkpt>
			<trkpt lat="49.127692" lon="18.575220">
				<ele>628.000000</ele>
			</trkpt>
			<trkpt lat="49.127981" lon="18.575247">
				<ele>627.000000</ele>
			</trkpt>
			<trkpt lat="49.128416" lon="18.575427">
				<ele>626.000000</ele>
			</trkpt>
			<trkpt lat="49.128692" lon="18.575543">
				<ele>625.000000</ele>
			</trkpt>
			<trkpt lat="49.129268" lon="18.575580">
				<ele>623.000000</ele>
			</trkpt>
			<trkpt lat="49.130061" lon="18.575345">
				<ele>621.000000</ele>
			</trkpt>
			<trkpt lat="49.130167" lon="18.574959">
				<ele>620.000000</ele>
			</trkpt>
			<trkpt lat="49.130350" lon="18.573800">
				<ele>609.000000</ele>
			</trkpt>
			<trkpt lat="49.130456" lon="18.573270">
				<ele>604.000000</ele>
			</trkpt>
			<trkpt lat="49.130450" lon="18.572956">
				<ele>601.000000</ele>
			</trkpt>
			<trkpt lat="49.130214" lon="18.572121">
				<ele>592.000000</ele>
			</trkpt>
			<trkpt lat="49.130167" lon="18.571609">
				<ele>588.000000</ele>
			</trkpt>
			<trkpt lat="49.130097" lon="18.571339">
				<ele>586.000000</ele>
			</trkpt>
			<trkpt lat="49.130103" lon="18.571115">
				<ele>584.000000</ele>
			</trkpt>
			<trkpt lat="49.130244" lon="18.570737">
				<ele>581.000000</ele>
			</trkpt>
			<trkpt lat="49.130414" lon="18.570557">
				<ele>578.000000</ele>
			</trkpt>
			<trkpt lat="49.130708" lon="18.570396">
				<ele>575.000000</ele>
			</trkpt>
			<trkpt lat="49.131137" lon="18.570396">
				<ele>571.000000</ele>
			</trkpt>
			<trkpt lat="49.131260" lon="18.570224">
				<ele>568.000000</ele>
			</trkpt>
			<trkpt lat="49.131308" lon="18.570037">
				<ele>566.000000</ele>
			</trkpt>
			<trkpt lat="49.131232" lon="18.569498">
				<ele>559.000000</ele>
			</trkpt>
			<trkpt lat="49.131073" lon="18.569327">
				<ele>557.000000</ele>
			</trkpt>
			<trkpt lat="49.130620" lon="18.568878">
				<ele>550.000000</ele>
			</trkpt>
			<trkpt lat="49.130485" lon="18.568706">
				<ele>549.000000</ele>
			</trkpt>
			<trkpt lat="49.130426" lon="18.568473">
				<ele>547.000000</ele>
			</trkpt>
			<trkpt lat="49.130426" lon="18.568258">
				<ele>546.000000</ele>
			</trkpt>
			<trkpt lat="49.130238" lon="18.568060">
				<ele>545.000000</ele>
			</trkpt>
			<trkpt lat="49.130138" lon="18.567890">
				<ele>544.000000</ele>
			</trkpt>
			<trkpt lat="49.130103" lon="18.567557">
				<ele>542.000000</ele>
			</trkpt>
			<trkpt lat="49.130114" lon="18.567494">
				<ele>542.000000</ele>
			</trkpt>
			<trkpt lat="49.130138" lon="18.567351">
				<ele>541.000000</ele>
			</trkpt>
			<trkpt lat="49.130208" lon="18.567171">
				<ele>540.000000</ele>
			</trkpt>
			<trkpt lat="49.130320" lon="18.567027">
				<ele>539.000000</ele>
			</trkpt>
			<trkpt lat="49.130444" lon="18.566947">
				<ele>537.000000</ele>
			</trkpt>
			<trkpt lat="49.130873" lon="18.566947">
				<ele>532.000000</ele>
			</trkpt>
			<trkpt lat="49.130961" lon="18.566829">
				<ele>531.000000</ele>
			</trkpt>
			<trkpt lat="49.131096" lon="18.566425">
				<ele>527.000000</ele>
			</trkpt>
			<trkpt lat="49.131396" lon="18.565392">
				<ele>518.000000</ele>
			</trkpt>
			<trkpt lat="49.131032" lon="18.564718">
				<ele>515.000000</ele>
			</trkpt>
			<trkpt lat="49.130961" lon="18.564503">
				<ele>514.000000</ele>
			</trkpt>
			<trkpt lat="49.130879" lon="18.563802">
				<ele>512.000000</ele>
			</trkpt>
			<trkpt lat="49.130820" lon="18.563622">
				<ele>511.000000</ele>
			</trkpt>
			<trkpt lat="49.130708" lon="18.563452">
				<ele>510.000000</ele>
			</trkpt>
			<trkpt lat="49.130491" lon="18.563182">
				<ele>509.000000</ele>
			</trkpt>
			<trkpt lat="49.130438" lon="18.563129">
				<ele>509.000000</ele>
			</trkpt>
			<trkpt lat="49.130114" lon="18.562903">
				<ele>508.000000</ele>
			</trkpt>
			<trkpt lat="49.130008" lon="18.562806">
				<ele>508.000000</ele>
			</trkpt>
			<trkpt lat="49.129927" lon="18.562697">
				<ele>508.000000</ele>
			</trkpt>
			<trkpt lat="49.129768" lon="18.562473">
				<ele>507.000000</ele>
			</trkpt>
			<trkpt lat="49.129709" lon="18.562374">
				<ele>507.000000</ele>
			</trkpt>
			<trkpt lat="49.129626" lon="18.562266">
				<ele>507.000000</ele>
			</trkpt>
			<trkpt lat="49.129591" lon="18.562194">
				<ele>507.000000</ele>
			</trkpt>
			<trkpt lat="49.129562" lon="18.562131">
				<ele>507.000000</ele>
			</trkpt>
			<trkpt lat="49.129532" lon="18.562060">
				<ele>507.000000</ele>
			</trkpt>
			<trkpt lat="49.129509" lon="18.561978">
				<ele>506.000000</ele>
			</trkpt>
			<trkpt lat="49.129474" lon="18.561835">
				<ele>506.000000</ele>
			</trkpt>
			<trkpt lat="49.129451" lon="18.561745">
				<ele>506.000000</ele>
			</trkpt>
			<trkpt lat="49.129421" lon="18.561664">
				<ele>506.000000</ele>
			</trkpt>
			<trkpt lat="49.129379" lon="18.561592">
				<ele>506.000000</ele>
			</trkpt>
			<trkpt lat="49.129339" lon="18.561548">
				<ele>506.000000</ele>
			</trkpt>
			<trkpt lat="49.129286" lon="18.561502">
				<ele>506.000000</ele>
			</trkpt>
			<trkpt lat="49.129239" lon="18.561467">
				<ele>505.000000</ele>
			</trkpt>
			<trkpt lat="49.129156" lon="18.561421">
				<ele>505.000000</ele>
			</trkpt>
			<trkpt lat="49.129021" lon="18.561377">
				<ele>505.000000</ele>
			</trkpt>
			<trkpt lat="49.128698" lon="18.561269">
				<ele>504.000000</ele>
			</trkpt>
			<trkpt lat="49.128245" lon="18.561143">
				<ele>503.000000</ele>
			</trkpt>
			<trkpt lat="49.128087" lon="18.561071">
				<ele>503.000000</ele>
			</trkpt>
			<trkpt lat="49.127987" lon="18.561018">
				<ele>503.000000</ele>
			</trkpt>
			<trkpt lat="49.127828" lon="18.560856">
				<ele>502.000000</ele>
			</trkpt>
			<trkpt lat="49.127692" lon="18.560649">
				<ele>502.000000</ele>
			</trkpt>
			<trkpt lat="49.127664" lon="18.560559">
				<ele>502.000000</ele>
			</trkpt>
			<trkpt lat="49.127611" lon="18.560362">
				<ele>501.000000</ele>
			</trkpt>
			<trkpt lat="49.127592" lon="18.559984">
				<ele>501.000000</ele>
			</trkpt>
			<trkpt lat="49.128016" lon="18.558008">
				<ele>498.000000</ele>
			</trkpt>
			<trkpt lat="49.128063" lon="18.557496">
				<ele>497.000000</ele>
			</trkpt>
			<trkpt lat="49.128022" lon="18.557083">
				<ele>496.000000</ele>
			</trkpt>
			<trkpt lat="49.127951" lon="18.556850">
				<ele>496.000000</ele>
			</trkpt>
			<trkpt lat="49.127910" lon="18.556705">
				<ele>496.000000</ele>
			</trkpt>
			<trkpt lat="49.127810" lon="18.556374">
				<ele>495.000000</ele>
			</trkpt>
			<trkpt lat="49.127722" lon="18.556104">
				<ele>495.000000</ele>
			</trkpt>
			<trkpt lat="49.127564" lon="18.555735">
				<ele>494.000000</ele>
			</trkpt>
			<trkpt lat="49.127093" lon="18.554613">
				<ele>492.000000</ele>
			</trkpt>
			<trkpt lat="49.126935" lon="18.554351">
				<ele>492.000000</ele>
			</trkpt>
			<trkpt lat="49.126587" lon="18.553948">
				<ele>491.000000</ele>
			</trkpt>
			<trkpt lat="49.126423" lon="18.553607">
				<ele>490.000000</ele>
			</trkpt>
			<trkpt lat="49.126253" lon="18.552923">
				<ele>489.000000</ele>
			</trkpt>
			<trkpt lat="49.126105" lon="18.552187">
				<ele>487.000000</ele>
			</trkpt>
			<trkpt lat="49.126041" lon="18.551584">
				<ele>486.000000</ele>
			</trkpt>
			<trkpt lat="49.126053" lon="18.550875">
				<ele>484.000000</ele>
			</trkpt>
			<trkpt lat="49.126241" lon="18.550246">
				<ele>483.000000</ele>
			</trkpt>
			<trkpt lat="49.126417" lon="18.549995">
				<ele>482.000000</ele>
			</trkpt>
			<trkpt lat="49.126870" lon="18.549519">
				<ele>480.000000</ele>
			</trkpt>
			<trkpt lat="49.127075" lon="18.549313">
				<ele>479.000000</ele>
			</trkpt>
			<trkpt lat="49.126876" lon="18.549313">
				<ele>479.000000</ele>
			</trkpt>
			<trkpt lat="49.126693" lon="18.549339">
				<ele>480.000000</ele>
			</trkpt>
			<trkpt lat="49.127263" lon="18.548747">
				<ele>483.000000</ele>
			</trkpt>
			<trkpt lat="49.127611" lon="18.548279">
				<ele>486.000000</ele>
			</trkpt>
			<trkpt lat="49.127969" lon="18.547902">
				<ele>488.000000</ele>
			</trkpt>
			<trkpt lat="49.128551" lon="18.546923">
				<ele>500.000000</ele>
			</trkpt>
			<trkpt lat="49.128903" lon="18.546114">
				<ele>505.000000</ele>
			</trkpt>
			<trkpt lat="49.128998" lon="18.545477">
				<ele>509.000000</ele>
			</trkpt>
			<trkpt lat="49.129027" lon="18.545091">
				<ele>508.000000</ele>
			</trkpt>
			<trkpt lat="49.129150" lon="18.544273">
				<ele>506.000000</ele>
			</trkpt>
			<trkpt lat="49.129703" lon="18.542072">
				<ele>498.000000</ele>
			</trkpt>
			<trkpt lat="49.129791" lon="18.541273">
				<ele>495.000000</ele>
			</trkpt>
			<trkpt lat="49.129797" lon="18.539942">
				<ele>490.000000</ele>
			</trkpt>
			<trkpt lat="49.129538" lon="18.538084">
				<ele>490.000000</ele>
			</trkpt>
			<trkpt lat="49.129180" lon="18.536269">
				<ele>490.000000</ele>
			</trkpt>
			<trkpt lat="49.128897" lon="18.535460">
				<ele>491.000000</ele>
			</trkpt>
			<trkpt lat="49.128498" lon="18.534346">
				<ele>495.000000</ele>
			</trkpt>
			<trkpt lat="49.127881" lon="18.533241">
				<ele>499.000000</ele>
			</trkpt>
			<trkpt lat="49.127269" lon="18.532334">
				<ele>500.000000</ele>
			</trkpt>
			<trkpt lat="49.127246" lon="18.532298">
				<ele>500.000000</ele>
			</trkpt>
			<trkpt lat="49.127005" lon="18.531929">
				<ele>500.000000</ele>
			</trkpt>
			<trkpt lat="49.126870" lon="18.531778">
				<ele>500.000000</ele>
			</trkpt>
			<trkpt lat="49.126400" lon="18.531363">
				<ele>498.000000</ele>
			</trkpt>
			<trkpt lat="49.126053" lon="18.531013">
				<ele>496.000000</ele>
			</trkpt>
			<trkpt lat="49.125847" lon="18.530627">
				<ele>495.000000</ele>
			</trkpt>
			<trkpt lat="49.125676" lon="18.530394">
				<ele>494.000000</ele>
			</trkpt>
			<trkpt lat="49.125600" lon="18.530250">
				<ele>493.000000</ele>
			</trkpt>
			<trkpt lat="49.125453" lon="18.529998">
				<ele>495.000000</ele>
			</trkpt>
			<trkpt lat="49.125394" lon="18.529783">
				<ele>496.000000</ele>
			</trkpt>
			<trkpt lat="49.125359" lon="18.529577">
				<ele>496.000000</ele>
			</trkpt>
			<trkpt lat="49.125276" lon="18.529361">
				<ele>497.000000</ele>
			</trkpt>
			<trkpt lat="49.125189" lon="18.529155">
				<ele>498.000000</ele>
			</trkpt>
			<trkpt lat="49.125165" lon="18.529011">
				<ele>499.000000</ele>
			</trkpt>
			<trkpt lat="49.125253" lon="18.528310">
				<ele>500.000000</ele>
			</trkpt>
			<trkpt lat="49.125247" lon="18.528184">
				<ele>500.000000</ele>
			</trkpt>
			<trkpt lat="49.125229" lon="18.528076">
				<ele>500.000000</ele>
			</trkpt>
			<trkpt lat="49.125212" lon="18.528013">
				<ele>500.000000</ele>
			</trkpt>
			<trkpt lat="49.125165" lon="18.527824">
				<ele>500.000000</ele>
			</trkpt>
			<trkpt lat="49.125130" lon="18.527610">
				<ele>500.000000</ele>
			</trkpt>
			<trkpt lat="49.125130" lon="18.527474">
				<ele>500.000000</ele>
			</trkpt>
			<trkpt lat="49.125153" lon="18.527348">
				<ele>500.000000</ele>
			</trkpt>
			<trkpt lat="49.125247" lon="18.526998">
				<ele>500.000000</ele>
			</trkpt>
			<trkpt lat="49.125371" lon="18.526728">
				<ele>498.000000</ele>
			</trkpt>
			<trkpt lat="49.125441" lon="18.526539">
				<ele>497.000000</ele>
			</trkpt>
			<trkpt lat="49.125500" lon="18.526352">
				<ele>495.000000</ele>
			</trkpt>
			<trkpt lat="49.125512" lon="18.526082">
				<ele>494.000000</ele>
			</trkpt>
			<trkpt lat="49.125512" lon="18.526019">
				<ele>493.000000</ele>
			</trkpt>
			<trkpt lat="49.125476" lon="18.525849">
				<ele>492.000000</ele>
			</trkpt>
			<trkpt lat="49.125418" lon="18.525669">
				<ele>491.000000</ele>
			</trkpt>
			<trkpt lat="49.125382" lon="18.525587">
				<ele>490.000000</ele>
			</trkpt>
			<trkpt lat="49.125388" lon="18.525373">
				<ele>489.000000</ele>
			</trkpt>
			<trkpt lat="49.125412" lon="18.524870">
				<ele>485.000000</ele>
			</trkpt>
			<trkpt lat="49.125423" lon="18.524222">
				<ele>480.000000</ele>
			</trkpt>
			<trkpt lat="49.125400" lon="18.523711">
				<ele>479.000000</ele>
			</trkpt>
			<trkpt lat="49.125353" lon="18.522857">
				<ele>478.000000</ele>
			</trkpt>
			<trkpt lat="49.125042" lon="18.521491">
				<ele>477.000000</ele>
			</trkpt>
			<trkpt lat="49.124794" lon="18.520036">
				<ele>475.000000</ele>
			</trkpt>
			<trkpt lat="49.124806" lon="18.518778">
				<ele>473.000000</ele>
			</trkpt>
			<trkpt lat="49.124865" lon="18.517396">
				<ele>472.000000</ele>
			</trkpt>
			<trkpt lat="49.124818" lon="18.515922">
				<ele>470.000000</ele>
			</trkpt>
			<trkpt lat="49.124836" lon="18.515275">
				<ele>470.000000</ele>
			</trkpt>
			<trkpt lat="49.124953" lon="18.514557">
				<ele>470.000000</ele>
			</trkpt>
			<trkpt lat="49.124894" lon="18.514170">
				<ele>470.000000</ele>
			</trkpt>
			<trkpt lat="49.124718" lon="18.513649">
				<ele>470.000000</ele>
			</trkpt>
			<trkpt lat="49.124683" lon="18.513191">
				<ele>470.000000</ele>
			</trkpt>
			<trkpt lat="49.124842" lon="18.512509">
				<ele>470.000000</ele>
			</trkpt>
			<trkpt lat="49.125371" lon="18.511727">
				<ele>491.000000</ele>
			</trkpt>
			<trkpt lat="49.125776" lon="18.510882">
				<ele>506.000000</ele>
			</trkpt>
			<trkpt lat="49.125941" lon="18.510316">
				<ele>518.000000</ele>
			</trkpt>
			<trkpt lat="49.126170" lon="18.509499">
				<ele>523.000000</ele>
			</trkpt>
			<trkpt lat="49.126241" lon="18.509167">
				<ele>528.000000</ele>
			</trkpt>
			<trkpt lat="49.126434" lon="18.508654">
				<ele>535.000000</ele>
			</trkpt>
			<trkpt lat="49.126652" lon="18.508555">
				<ele>539.000000</ele>
			</trkpt>
			<trkpt lat="49.127263" lon="18.508197">
				<ele>548.000000</ele>
			</trkpt>
			<trkpt lat="49.127505" lon="18.507864">
				<ele>553.000000</ele>
			</trkpt>
			<trkpt lat="49.127598" lon="18.507685">
				<ele>556.000000</ele>
			</trkpt>
			<trkpt lat="49.127692" lon="18.507092">
				<ele>562.000000</ele>
			</trkpt>
			<trkpt lat="49.127728" lon="18.506786">
				<ele>565.000000</ele>
			</trkpt>
			<trkpt lat="49.127787" lon="18.506400">
				<ele>569.000000</ele>
			</trkpt>
			<trkpt lat="49.127828" lon="18.506167">
				<ele>572.000000</ele>
			</trkpt>
			<trkpt lat="49.127957" lon="18.505295">
				<ele>582.000000</ele>
			</trkpt>
			<trkpt lat="49.128204" lon="18.505277">
				<ele>585.000000</ele>
			</trkpt>
			<trkpt lat="49.128298" lon="18.505222">
				<ele>587.000000</ele>
			</trkpt>
			<trkpt lat="49.128433" lon="18.505008">
				<ele>589.000000</ele>
			</trkpt>
			<trkpt lat="49.128504" lon="18.504855">
				<ele>592.000000</ele>
			</trkpt>
			<trkpt lat="49.128510" lon="18.504720">
				<ele>594.000000</ele>
			</trkpt>
			<trkpt lat="49.128463" lon="18.504594">
				<ele>596.000000</ele>
			</trkpt>
			<trkpt lat="49.128439" lon="18.504513">
				<ele>598.000000</ele>
			</trkpt>
			<trkpt lat="49.128445" lon="18.504423">
				<ele>599.000000</ele>
			</trkpt>
			<trkpt lat="49.128451" lon="18.504333">
				<ele>601.000000</ele>
			</trkpt>
			<trkpt lat="49.128474" lon="18.504243">
				<ele>603.000000</ele>
			</trkpt>
			<trkpt lat="49.128516" lon="18.504073">
				<ele>607.000000</ele>
			</trkpt>
			<trkpt lat="49.128563" lon="18.503939">
				<ele>611.000000</ele>
			</trkpt>
			<trkpt lat="49.128610" lon="18.503821">
				<ele>614.000000</ele>
			</trkpt>
			<trkpt lat="49.128639" lon="18.503651">
				<ele>618.000000</ele>
			</trkpt>
			<trkpt lat="49.128716" lon="18.503328">
				<ele>627.000000</ele>
			</trkpt>
			<trkpt lat="49.128792" lon="18.503148">
				<ele>633.000000</ele>
			</trkpt>
			<trkpt lat="49.128797" lon="18.503058">
				<ele>635.000000</ele>
			</trkpt>
			<trkpt lat="49.128850" lon="18.502788">
				<ele>642.000000</ele>
			</trkpt>
			<trkpt lat="49.128903" lon="18.502645">
				<ele>646.000000</ele>
			</trkpt>
			<trkpt lat="49.128933" lon="18.502538">
				<ele>648.000000</ele>
			</trkpt>
			<trkpt lat="49.128998" lon="18.502475">
				<ele>650.000000</ele>
			</trkpt>
			<trkpt lat="49.129333" lon="18.502519">
				<ele>655.000000</ele>
			</trkpt>
			<trkpt lat="49.129474" lon="18.502483">
				<ele>657.000000</ele>
			</trkpt>
			<trkpt lat="49.129644" lon="18.502420">
				<ele>659.000000</ele>
			</trkpt>
			<trkpt lat="49.129815" lon="18.502366">
				<ele>663.000000</ele>
			</trkpt>
			<trkpt lat="49.130138" lon="18.502295">
				<ele>671.000000</ele>
			</trkpt>
			<trkpt lat="49.130403" lon="18.502196">
				<ele>679.000000</ele>
			</trkpt>
			<trkpt lat="49.130790" lon="18.501909">
				<ele>692.000000</ele>
			</trkpt>
			<trkpt lat="49.131355" lon="18.501998">
				<ele>707.000000</ele>
			</trkpt>
			<trkpt lat="49.131502" lon="18.502106">
				<ele>711.000000</ele>
			</trkpt>
			<trkpt lat="49.131749" lon="18.502070">
				<ele>718.000000</ele>
			</trkpt>
			<trkpt lat="49.131836" lon="18.502025">
				<ele>721.000000</ele>
			</trkpt>
			<trkpt lat="49.132301" lon="18.501917">
				<ele>733.000000</ele>
			</trkpt>
			<trkpt lat="49.132760" lon="18.501530">
				<ele>747.000000</ele>
			</trkpt>
			<trkpt lat="49.132889" lon="18.501378">
				<ele>752.000000</ele>
			</trkpt>
			<trkpt lat="49.133053" lon="18.501253">
				<ele>758.000000</ele>
			</trkpt>
			<trkpt lat="49.133224" lon="18.501199">
				<ele>764.000000</ele>
			</trkpt>
			<trkpt lat="49.133547" lon="18.501180">
				<ele>774.000000</ele>
			</trkpt>
			<trkpt lat="49.133806" lon="18.501207">
				<ele>782.000000</ele>
			</trkpt>
			<trkpt lat="49.134000" lon="18.501280">
				<ele>789.000000</ele>
			</trkpt>
			<trkpt lat="49.134076" lon="18.501306">
				<ele>791.000000</ele>
			</trkpt>
			<trkpt lat="49.134176" lon="18.501280">
				<ele>794.000000</ele>
			</trkpt>
			<trkpt lat="49.134476" lon="18.501136">
				<ele>802.000000</ele>
			</trkpt>
			<trkpt lat="49.134646" lon="18.501100">
				<ele>806.000000</ele>
			</trkpt>
			<trkpt lat="49.134787" lon="18.501037">
				<ele>809.000000</ele>
			</trkpt>
			<trkpt lat="49.134840" lon="18.501001">
				<ele>810.000000</ele>
			</trkpt>
			<trkpt lat="49.134952" lon="18.500983">
				<ele>814.000000</ele>
			</trkpt>
			<trkpt lat="49.134952" lon="18.500983">
				<ele>814.000000</ele>
			</trkpt>
			<trkpt lat="49.134917" lon="18.500956">
				<ele>815.000000</ele>
			</trkpt>
			<trkpt lat="49.134893" lon="18.500911">
				<ele>816.000000</ele>
			</trkpt>
			<trkpt lat="49.134864" lon="18.500812">
				<ele>818.000000</ele>
			</trkpt>
			<trkpt lat="49.134811" lon="18.500651">
				<ele>822.000000</ele>
			</trkpt>
			<trkpt lat="49.134817" lon="18.500614">
				<ele>823.000000</ele>
			</trkpt>
			<trkpt lat="49.134764" lon="18.500570">
				<ele>824.000000</ele>
			</trkpt>
			<trkpt lat="49.134799" lon="18.500498">
				<ele>826.000000</ele>
			</trkpt>
			<trkpt lat="49.134799" lon="18.500372">
				<ele>829.000000</ele>
			</trkpt>
			<trkpt lat="49.134722" lon="18.500219">
				<ele>832.000000</ele>
			</trkpt>
			<trkpt lat="49.134599" lon="18.499905">
				<ele>838.000000</ele>
			</trkpt>
			<trkpt lat="49.134570" lon="18.499672">
				<ele>839.000000</ele>
			</trkpt>
			<trkpt lat="49.134511" lon="18.499546">
				<ele>838.000000</ele>
			</trkpt>
			<trkpt lat="49.134441" lon="18.499492">
				<ele>838.000000</ele>
			</trkpt>
			<trkpt lat="49.134370" lon="18.499420">
				<ele>837.000000</ele>
			</trkpt>
			<trkpt lat="49.134276" lon="18.499267">
				<ele>836.000000</ele>
			</trkpt>
			<trkpt lat="49.134235" lon="18.499169">
				<ele>835.000000</ele>
			</trkpt>
			<trkpt lat="49.134182" lon="18.499106">
				<ele>835.000000</ele>
			</trkpt>
			<trkpt lat="49.134099" lon="18.499043">
				<ele>834.000000</ele>
			</trkpt>
			<trkpt lat="49.134053" lon="18.499043">
				<ele>834.000000</ele>
			</trkpt>
			<trkpt lat="49.133965" lon="18.499106">
				<ele>833.000000</ele>
			</trkpt>
			<trkpt lat="49.133859" lon="18.499142">
				<ele>832.000000</ele>
			</trkpt>
			<trkpt lat="49.133817" lon="18.499196">
				<ele>832.000000</ele>
			</trkpt>
			<trkpt lat="49.133770" lon="18.499232">
				<ele>831.000000</ele>
			</trkpt>
			<trkpt lat="49.133682" lon="18.499232">
				<ele>831.000000</ele>
			</trkpt>
			<trkpt lat="49.133629" lon="18.499267">
				<ele>830.000000</ele>
			</trkpt>
			<trkpt lat="49.133424" lon="18.499339">
				<ele>828.000000</ele>
			</trkpt>
			<trkpt lat="49.133341" lon="18.499293">
				<ele>827.000000</ele>
			</trkpt>
			<trkpt lat="49.133300" lon="18.499285">
				<ele>826.000000</ele>
			</trkpt>
			<trkpt lat="49.133259" lon="18.499293">
				<ele>826.000000</ele>
			</trkpt>
			<trkpt lat="49.133241" lon="18.499204">
				<ele>825.000000</ele>
			</trkpt>
			<trkpt lat="49.133112" lon="18.498719">
				<ele>821.000000</ele>
			</trkpt>
			<trkpt lat="49.133041" lon="18.498513">
				<ele>819.000000</ele>
			</trkpt>
			<trkpt lat="49.132889" lon="18.498243">
				<ele>815.000000</ele>
			</trkpt>
			<trkpt lat="49.132801" lon="18.498127">
				<ele>813.000000</ele>
			</trkpt>
			<trkpt lat="49.132683" lon="18.497947">
				<ele>811.000000</ele>
			</trkpt>
			<trkpt lat="49.132618" lon="18.497804">
				<ele>809.000000</ele>
			</trkpt>
			<trkpt lat="49.132571" lon="18.497722">
				<ele>808.000000</ele>
			</trkpt>
			<trkpt lat="49.132513" lon="18.497651">
				<ele>807.000000</ele>
			</trkpt>
			<trkpt lat="49.132430" lon="18.497561">
				<ele>805.000000</ele>
			</trkpt>
			<trkpt lat="49.132365" lon="18.497488">
				<ele>804.000000</ele>
			</trkpt>
			<trkpt lat="49.132254" lon="18.497435">
				<ele>802.000000</ele>
			</trkpt>
			<trkpt lat="49.132084" lon="18.497282">
				<ele>800.000000</ele>
			</trkpt>
			<trkpt lat="49.131972" lon="18.497183">
				<ele>800.000000</ele>
			</trkpt>
			<trkpt lat="49.131913" lon="18.497148">
				<ele>800.000000</ele>
			</trkpt>
			<trkpt lat="49.131831" lon="18.497129">
				<ele>800.000000</ele>
			</trkpt>
			<trkpt lat="49.131549" lon="18.497120">
				<ele>800.000000</ele>
			</trkpt>
			<trkpt lat="49.131378" lon="18.497156">
				<ele>800.000000</ele>
			</trkpt>
			<trkpt lat="49.131243" lon="18.497111">
				<ele>800.000000</ele>
			</trkpt>
			<trkpt lat="49.131073" lon="18.497102">
				<ele>800.000000</ele>
			</trkpt>
			<trkpt lat="49.130984" lon="18.497022">
				<ele>800.000000</ele>
			</trkpt>
			<trkpt lat="49.130879" lon="18.496976">
				<ele>800.000000</ele>
			</trkpt>
			<trkpt lat="49.130826" lon="18.496922">
				<ele>800.000000</ele>
			</trkpt>
			<trkpt lat="49.130761" lon="18.496886">
				<ele>800.000000</ele>
			</trkpt>
			<trkpt lat="49.130726" lon="18.496833">
				<ele>800.000000</ele>
			</trkpt>
			<trkpt lat="49.130656" lon="18.496743">
				<ele>800.000000</ele>
			</trkpt>
			<trkpt lat="49.130526" lon="18.496689">
				<ele>800.000000</ele>
			</trkpt>
			<trkpt lat="49.130438" lon="18.496509">
				<ele>800.000000</ele>
			</trkpt>
			<trkpt lat="49.130385" lon="18.496464">
				<ele>800.000000</ele>
			</trkpt>
			<trkpt lat="49.130326" lon="18.496446">
				<ele>800.000000</ele>
			</trkpt>
			<trkpt lat="49.130203" lon="18.496464">
				<ele>800.000000</ele>
			</trkpt>
			<trkpt lat="49.130179" lon="18.496446">
				<ele>800.000000</ele>
			</trkpt>
			<trkpt lat="49.130132" lon="18.496375">
				<ele>800.000000</ele>
			</trkpt>
			<trkpt lat="49.130067" lon="18.496366">
				<ele>800.000000</ele>
			</trkpt>
			<trkpt lat="49.129991" lon="18.496492">
				<ele>806.000000</ele>
			</trkpt>
			<trkpt lat="49.129955" lon="18.496527">
				<ele>808.000000</ele>
			</trkpt>
			<trkpt lat="49.129591" lon="18.496779">
				<ele>815.000000</ele>
			</trkpt>
			<trkpt lat="49.129415" lon="18.496859">
				<ele>818.000000</ele>
			</trkpt>
			<trkpt lat="49.129262" lon="18.496752">
				<ele>821.000000</ele>
			</trkpt>
			<trkpt lat="49.129098" lon="18.496761">
				<ele>827.000000</ele>
			</trkpt>
			<trkpt lat="49.128956" lon="18.496672">
				<ele>831.000000</ele>
			</trkpt>
			<trkpt lat="49.128774" lon="18.496536">
				<ele>834.000000</ele>
			</trkpt>
			<trkpt lat="49.128433" lon="18.496446">
				<ele>839.000000</ele>
			</trkpt>
			<trkpt lat="49.128204" lon="18.496429">
				<ele>843.000000</ele>
			</trkpt>
			<trkpt lat="49.128045" lon="18.496492">
				<ele>846.000000</ele>
			</trkpt>
			<trkpt lat="49.127828" lon="18.496546">
				<ele>850.000000</ele>
			</trkpt>
			<trkpt lat="49.127781" lon="18.496456">
				<ele>850.000000</ele>
			</trkpt>
			<trkpt lat="49.127569" lon="18.496330">
				<ele>850.000000</ele>
			</trkpt>
			<trkpt lat="49.127499" lon="18.496383">
				<ele>850.000000</ele>
			</trkpt>
			<trkpt lat="49.127499" lon="18.496527">
				<ele>850.000000</ele>
			</trkpt>
			<trkpt lat="49.127499" lon="18.496609">
				<ele>850.000000</ele>
			</trkpt>
			<trkpt lat="49.127369" lon="18.496653">
				<ele>850.000000</ele>
			</trkpt>
			<trkpt lat="49.127116" lon="18.496599">
				<ele>854.000000</ele>
			</trkpt>
			<trkpt lat="49.126846" lon="18.496582">
				<ele>861.000000</ele>
			</trkpt>
			<trkpt lat="49.125994" lon="18.496366">
				<ele>886.000000</ele>
			</trkpt>
			<trkpt lat="49.125771" lon="18.496141">
				<ele>889.000000</ele>
			</trkpt>
			<trkpt lat="49.125771" lon="18.496141">
				<ele>889.000000</ele>
			</trkpt>
			<trkpt lat="49.125718" lon="18.496087">
				<ele>890.000000</ele>
			</trkpt>
			<trkpt lat="49.125529" lon="18.495907">
				<ele>888.000000</ele>
			</trkpt>
			<trkpt lat="49.124806" lon="18.495674">
				<ele>871.000000</ele>
			</trkpt>
			<trkpt lat="49.124224" lon="18.495045">
				<ele>849.000000</ele>
			</trkpt>
			<trkpt lat="49.123754" lon="18.495064">
				<ele>838.000000</ele>
			</trkpt>
			<trkpt lat="49.122807" lon="18.494955">
				<ele>810.000000</ele>
			</trkpt>
			<trkpt lat="49.122461" lon="18.494389">
				<ele>793.000000</ele>
			</trkpt>
			<trkpt lat="49.121808" lon="18.494048">
				<ele>762.000000</ele>
			</trkpt>
			<trkpt lat="49.121026" lon="18.493464">
				<ele>717.000000</ele>
			</trkpt>
			<trkpt lat="49.120362" lon="18.492800">
				<ele>670.000000</ele>
			</trkpt>
			<trkpt lat="49.119903" lon="18.492269">
				<ele>637.000000</ele>
			</trkpt>
			<trkpt lat="49.119262" lon="18.492269">
				<ele>614.000000</ele>
			</trkpt>
			<trkpt lat="49.118927" lon="18.492108">
				<ele>600.000000</ele>
			</trkpt>
			<trkpt lat="49.118739" lon="18.491802">
				<ele>600.000000</ele>
			</trkpt>
			<trkpt lat="49.118574" lon="18.491802">
				<ele>600.000000</ele>
			</trkpt>
			<trkpt lat="49.118293" lon="18.491586">
				<ele>600.000000</ele>
			</trkpt>
			<trkpt lat="49.117845" lon="18.491433">
				<ele>590.000000</ele>
			</trkpt>
			<trkpt lat="49.117558" lon="18.491272">
				<ele>576.000000</ele>
			</trkpt>
			<trkpt lat="49.117110" lon="18.491254">
				<ele>551.000000</ele>
			</trkpt>
			<trkpt lat="49.116840" lon="18.491146">
				<ele>537.000000</ele>
			</trkpt>
			<trkpt lat="49.116517" lon="18.490993">
				<ele>522.000000</ele>
			</trkpt>
			<trkpt lat="49.116011" lon="18.490814">
				<ele>499.000000</ele>
			</trkpt>
			<trkpt lat="49.115940" lon="18.490706">
				<ele>499.000000</ele>
			</trkpt>
			<trkpt lat="49.116035" lon="18.490473">
				<ele>498.000000</ele>
			</trkpt>
			<trkpt lat="49.115958" lon="18.489907">
				<ele>479.000000</ele>
			</trkpt>
			<trkpt lat="49.115628" lon="18.489735">
				<ele>468.000000</ele>
			</trkpt>
			<trkpt lat="49.115529" lon="18.489638">
				<ele>464.000000</ele>
			</trkpt>
			<trkpt lat="49.115241" lon="18.489385">
				<ele>460.000000</ele>
			</trkpt>
			<trkpt lat="49.115199" lon="18.489422">
				<ele>460.000000</ele>
			</trkpt>
			<trkpt lat="49.115199" lon="18.489422">
				<ele>460.000000</ele>
			</trkpt>
			<trkpt lat="49.115129" lon="18.488595">
				<ele>460.000000</ele>
			</trkpt>
			<trkpt lat="49.115023" lon="18.488146">
				<ele>460.000000</ele>
			</trkpt>
			<trkpt lat="49.114894" lon="18.487203">
				<ele>460.000000</ele>
			</trkpt>
			<trkpt lat="49.114747" lon="18.486682">
				<ele>460.000000</ele>
			</trkpt>
			<trkpt lat="49.114623" lon="18.486448">
				<ele>460.000000</ele>
			</trkpt>
			<trkpt lat="49.114470" lon="18.486259">
				<ele>460.000000</ele>
			</trkpt>
			<trkpt lat="49.114441" lon="18.486062">
				<ele>461.000000</ele>
			</trkpt>
			<trkpt lat="49.114682" lon="18.485676">
				<ele>462.000000</ele>
			</trkpt>
			<trkpt lat="49.115111" lon="18.485208">
				<ele>465.000000</ele>
			</trkpt>
			<trkpt lat="49.115347" lon="18.484777">
				<ele>467.000000</ele>
			</trkpt>
			<trkpt lat="49.115547" lon="18.484624">
				<ele>469.000000</ele>
			</trkpt>
			<trkpt lat="49.115923" lon="18.484571">
				<ele>472.000000</ele>
			</trkpt>
			<trkpt lat="49.116146" lon="18.484481">
				<ele>475.000000</ele>
			</trkpt>
			<trkpt lat="49.116416" lon="18.484346">
				<ele>480.000000</ele>
			</trkpt>
			<trkpt lat="49.116681" lon="18.484328">
				<ele>480.000000</ele>
			</trkpt>
			<trkpt lat="49.117334" lon="18.484292">
				<ele>480.000000</ele>
			</trkpt>
			<trkpt lat="49.117157" lon="18.482514">
				<ele>480.000000</ele>
			</trkpt>
			<trkpt lat="49.117034" lon="18.481462">
				<ele>480.000000</ele>
			</trkpt>
			<trkpt lat="49.116970" lon="18.480798">
				<ele>479.000000</ele>
			</trkpt>
			<trkpt lat="49.116940" lon="18.479927">
				<ele>478.000000</ele>
			</trkpt>
			<trkpt lat="49.116905" lon="18.479711">
				<ele>478.000000</ele>
			</trkpt>
			<trkpt lat="49.116840" lon="18.479567">
				<ele>477.000000</ele>
			</trkpt>
			<trkpt lat="49.116758" lon="18.479225">
				<ele>477.000000</ele>
			</trkpt>
			<trkpt lat="49.116675" lon="18.479001">
				<ele>477.000000</ele>
			</trkpt>
			<trkpt lat="49.116564" lon="18.478768">
				<ele>476.000000</ele>
			</trkpt>
			<trkpt lat="49.116469" lon="18.478462">
				<ele>476.000000</ele>
			</trkpt>
			<trkpt lat="49.116434" lon="18.478229">
				<ele>476.000000</ele>
			</trkpt>
			<trkpt lat="49.116422" lon="18.477896">
				<ele>475.000000</ele>
			</trkpt>
			<trkpt lat="49.116369" lon="18.477411">
				<ele>475.000000</ele>
			</trkpt>
			<trkpt lat="49.116152" lon="18.476324">
				<ele>473.000000</ele>
			</trkpt>
			<trkpt lat="49.115776" lon="18.475309">
				<ele>472.000000</ele>
			</trkpt>
			<trkpt lat="49.115270" lon="18.474007">
				<ele>470.000000</ele>
			</trkpt>
			<trkpt lat="49.115111" lon="18.473449">
				<ele>468.000000</ele>
			</trkpt>
			<trkpt lat="49.114894" lon="18.472992">
				<ele>465.000000</ele>
			</trkpt>
			<trkpt lat="49.114129" lon="18.471770">
				<ele>457.000000</ele>
			</trkpt>
			<trkpt lat="49.113630" lon="18.471195">
				<ele>451.000000</ele>
			</trkpt>
			<trkpt lat="49.113206" lon="18.470709">
				<ele>444.000000</ele>
			</trkpt>
			<trkpt lat="49.112930" lon="18.470315">
				<ele>439.000000</ele>
			</trkpt>
			<trkpt lat="49.112683" lon="18.469803">
				<ele>432.000000</ele>
			</trkpt>
			<trkpt lat="49.112512" lon="18.469560">
				<ele>428.000000</ele>
			</trkpt>
			<trkpt lat="49.112342" lon="18.469147">
				<ele>423.000000</ele>
			</trkpt>
			<trkpt lat="49.112248" lon="18.468751">
				<ele>419.000000</ele>
			</trkpt>
			<trkpt lat="49.112107" lon="18.468428">
				<ele>414.000000</ele>
			</trkpt>
			<trkpt lat="49.111913" lon="18.468015">
				<ele>409.000000</ele>
			</trkpt>
			<trkpt lat="49.111913" lon="18.467763">
				<ele>408.000000</ele>
			</trkpt>
			<trkpt lat="49.111989" lon="18.467170">
				<ele>404.000000</ele>
			</trkpt>
			<trkpt lat="49.112130" lon="18.466424">
				<ele>400.000000</ele>
			</trkpt>
			<trkpt lat="49.112148" lon="18.466263">
				<ele>399.000000</ele>
			</trkpt>
			<trkpt lat="49.112665" lon="18.465571">
				<ele>390.000000</ele>
			</trkpt>
			<trkpt lat="49.113371" lon="18.464071">
				<ele>379.000000</ele>
			</trkpt>
			<trkpt lat="49.113776" lon="18.463595">
				<ele>378.000000</ele>
			</trkpt>
			<trkpt lat="49.114077" lon="18.463254">
				<ele>377.000000</ele>
			</trkpt>
			<trkpt lat="49.114723" lon="18.462876">
				<ele>375.000000</ele>
			</trkpt>
			<trkpt lat="49.114988" lon="18.462759">
				<ele>374.000000</ele>
			</trkpt>
			<trkpt lat="49.115494" lon="18.462418">
				<ele>372.000000</ele>
			</trkpt>
			<trkpt lat="49.115858" lon="18.461879">
				<ele>371.000000</ele>
			</trkpt>
			<trkpt lat="49.116052" lon="18.461476">
				<ele>370.000000</ele>
			</trkpt>
			<trkpt lat="49.116740" lon="18.460612">
				<ele>359.000000</ele>
			</trkpt>
			<trkpt lat="49.116911" lon="18.460101">
				<ele>359.000000</ele>
			</trkpt>
			<trkpt lat="49.117016" lon="18.459373">
				<ele>357.000000</ele>
			</trkpt>
			<trkpt lat="49.116799" lon="18.458700">
				<ele>356.000000</ele>
			</trkpt>
			<trkpt lat="49.116487" lon="18.458097">
				<ele>355.000000</ele>
			</trkpt>
			<trkpt lat="49.116158" lon="18.457459">
				<ele>354.000000</ele>
			</trkpt>
			<trkpt lat="49.115893" lon="18.457038">
				<ele>353.000000</ele>
			</trkpt>
			<trkpt lat="49.115641" lon="18.456705">
				<ele>352.000000</ele>
			</trkpt>
			<trkpt lat="49.115376" lon="18.456319">
				<ele>351.000000</ele>
			</trkpt>
			<trkpt lat="49.115247" lon="18.456050">
				<ele>351.000000</ele>
			</trkpt>
			<trkpt lat="49.115211" lon="18.455914">
				<ele>351.000000</ele>
			</trkpt>
			<trkpt lat="49.115217" lon="18.455834">
				<ele>351.000000</ele>
			</trkpt>
			<trkpt lat="49.115417" lon="18.455474">
				<ele>349.000000</ele>
			</trkpt>
			<trkpt lat="49.115793" lon="18.454809">
				<ele>338.000000</ele>
			</trkpt>
			<trkpt lat="49.115929" lon="18.454576">
				<ele>335.000000</ele>
			</trkpt>
			<trkpt lat="49.116011" lon="18.454513">
				<ele>333.000000</ele>
			</trkpt>
			<trkpt lat="49.116329" lon="18.453983">
				<ele>326.000000</ele>
			</trkpt>
			<trkpt lat="49.116393" lon="18.453902">
				<ele>324.000000</ele>
			</trkpt>
			<trkpt lat="49.116434" lon="18.453813">
				<ele>323.000000</ele>
			</trkpt>
			<trkpt lat="49.116458" lon="18.453750">
				<ele>322.000000</ele>
			</trkpt>
			<trkpt lat="49.116458" lon="18.453687">
				<ele>322.000000</ele>
			</trkpt>
			<trkpt lat="49.116440" lon="18.453597">
				<ele>321.000000</ele>
			</trkpt>
			<trkpt lat="49.116405" lon="18.453507">
				<ele>320.000000</ele>
			</trkpt>
			<trkpt lat="49.116352" lon="18.453417">
				<ele>318.000000</ele>
			</trkpt>
			<trkpt lat="49.116263" lon="18.453300">
				<ele>316.000000</ele>
			</trkpt>
			<trkpt lat="49.116235" lon="18.453228">
				<ele>314.000000</ele>
			</trkpt>
			<trkpt lat="49.116235" lon="18.453138">
				<ele>313.000000</ele>
			</trkpt>
			<trkpt lat="49.116258" lon="18.452995">
				<ele>311.000000</ele>
			</trkpt>
			<trkpt lat="49.116311" lon="18.452870">
				<ele>309.000000</ele>
			</trkpt>
			<trkpt lat="49.116422" lon="18.452771">
				<ele>307.000000</ele>
			</trkpt>
			<trkpt lat="49.116675" lon="18.452600">
				<ele>301.000000</ele>
			</trkpt>
			<trkpt lat="49.116764" lon="18.452510">
				<ele>300.000000</ele>
			</trkpt>
			<trkpt lat="49.116846" lon="18.452438">
				<ele>300.000000</ele>
			</trkpt>
			<trkpt lat="49.116875" lon="18.452411">
				<ele>300.000000</ele>
			</trkpt>
			<trkpt lat="49.116987" lon="18.452249">
				<ele>299.000000</ele>
			</trkpt>
			<trkpt lat="49.117034" lon="18.452168">
				<ele>299.000000</ele>
			</trkpt>
			<trkpt lat="49.117116" lon="18.452025">
				<ele>299.000000</ele>
			</trkpt>
			<trkpt lat="49.117187" lon="18.451908">
				<ele>299.000000</ele>
			</trkpt>
			<trkpt lat="49.117216" lon="18.451872">
				<ele>298.000000</ele>
			</trkpt>
			<trkpt lat="49.117216" lon="18.451845">
				<ele>298.000000</ele>
			</trkpt>
			<trkpt lat="49.117287" lon="18.451836">
				<ele>298.000000</ele>
			</trkpt>
			<trkpt lat="49.117281" lon="18.451755">
				<ele>297.000000</ele>
			</trkpt>
			<trkpt lat="49.117269" lon="18.451620">
				<ele>295.000000</ele>
			</trkpt>
			<trkpt lat="49.117334" lon="18.451639">
				<ele>294.000000</ele>
			</trkpt>
			<trkpt lat="49.117446" lon="18.451639">
				<ele>292.000000</ele>
			</trkpt>
			<trkpt lat="49.117481" lon="18.451629">
				<ele>292.000000</ele>
			</trkpt>
			<trkpt lat="49.117516" lon="18.451585">
				<ele>291.000000</ele>
			</trkpt>
			<trkpt lat="49.117563" lon="18.451576">
				<ele>290.000000</ele>
			</trkpt>
			<trkpt lat="49.117628" lon="18.451549">
				<ele>290.000000</ele>
			</trkpt>
			<trkpt lat="49.117652" lon="18.451593">
				<ele>290.000000</ele>
			</trkpt>
			<trkpt lat="49.117692" lon="18.451612">
				<ele>290.000000</ele>
			</trkpt>
			<trkpt lat="49.117745" lon="18.451612">
				<ele>290.000000</ele>
			</trkpt>
			<trkpt lat="49.117839" lon="18.451593">
				<ele>290.000000</ele>
			</trkpt>
			<trkpt lat="49.118016" lon="18.451549">
				<ele>290.000000</ele>
			</trkpt>
			<trkpt lat="49.118163" lon="18.451495">
				<ele>290.000000</ele>
			</trkpt>
			<trkpt lat="49.118304" lon="18.451432">
				<ele>290.000000</ele>
			</trkpt>
			<trkpt lat="49.118486" lon="18.451324">
				<ele>290.000000</ele>
			</trkpt>
			<trkpt lat="49.118610" lon="18.451252">
				<ele>290.000000</ele>
			</trkpt>
			<trkpt lat="49.118686" lon="18.451189">
				<ele>290.000000</ele>
			</trkpt>
			<trkpt lat="49.118786" lon="18.451100">
				<ele>290.000000</ele>
			</trkpt>
			<trkpt lat="49.118898" lon="18.451010">
				<ele>290.000000</ele>
			</trkpt>
			<trkpt lat="49.118933" lon="18.450956">
				<ele>290.000000</ele>
			</trkpt>
			<trkpt lat="49.118956" lon="18.450876">
				<ele>290.000000</ele>
			</trkpt>
			<trkpt lat="49.118962" lon="18.450839">
				<ele>290.000000</ele>
			</trkpt>
			<trkpt lat="49.118968" lon="18.450776">
				<ele>290.000000</ele>
			</trkpt>
			<trkpt lat="49.118962" lon="18.450713">
				<ele>290.000000</ele>
			</trkpt>
			<trkpt lat="49.118998" lon="18.450686">
				<ele>290.000000</ele>
			</trkpt>
			<trkpt lat="49.119051" lon="18.450650">
				<ele>290.000000</ele>
			</trkpt>
			<trkpt lat="49.119086" lon="18.450686">
				<ele>290.000000</ele>
			</trkpt>
			<trkpt lat="49.119127" lon="18.450704">
				<ele>290.000000</ele>
			</trkpt>
			<trkpt lat="49.119168" lon="18.450704">
				<ele>290.000000</ele>
			</trkpt>
			<trkpt lat="49.119198" lon="18.450686">
				<ele>290.000000</ele>
			</trkpt>
			<trkpt lat="49.119280" lon="18.450578">
				<ele>290.000000</ele>
			</trkpt>
			<trkpt lat="49.119386" lon="18.450426">
				<ele>290.000000</ele>
			</trkpt>
			<trkpt lat="49.119492" lon="18.450273">
				<ele>290.000000</ele>
			</trkpt>
			<trkpt lat="49.119527" lon="18.450192">
				<ele>290.000000</ele>
			</trkpt>
			<trkpt lat="49.119638" lon="18.449771">
				<ele>290.000000</ele>
			</trkpt>
			<trkpt lat="49.119715" lon="18.449411">
				<ele>290.000000</ele>
			</trkpt>
			<trkpt lat="49.119738" lon="18.449231">
				<ele>290.000000</ele>
			</trkpt>
			<trkpt lat="49.119750" lon="18.449069">
				<ele>290.000000</ele>
			</trkpt>
			<trkpt lat="49.119756" lon="18.448763">
				<ele>290.000000</ele>
			</trkpt>
			<trkpt lat="49.119756" lon="18.448386">
				<ele>290.000000</ele>
			</trkpt>
			<trkpt lat="49.119756" lon="18.448126">
				<ele>290.000000</ele>
			</trkpt>
			<trkpt lat="49.119768" lon="18.447964">
				<ele>290.000000</ele>
			</trkpt>
			<trkpt lat="49.119774" lon="18.447874">
				<ele>290.000000</ele>
			</trkpt>
			<trkpt lat="49.119786" lon="18.447524">
				<ele>290.000000</ele>
			</trkpt>
			<trkpt lat="49.119786" lon="18.447480">
				<ele>290.000000</ele>
			</trkpt>
			<trkpt lat="49.119786" lon="18.446851">
				<ele>290.000000</ele>
			</trkpt>
			<trkpt lat="49.119791" lon="18.446176">
				<ele>290.000000</ele>
			</trkpt>
			<trkpt lat="49.119791" lon="18.445916">
				<ele>290.000000</ele>
			</trkpt>
			<trkpt lat="49.119768" lon="18.445547">
				<ele>290.000000</ele>
			</trkpt>
			<trkpt lat="49.119750" lon="18.445513">
				<ele>290.000000</ele>
			</trkpt>
			<trkpt lat="49.119756" lon="18.445377">
				<ele>290.000000</ele>
			</trkpt>
			<trkpt lat="49.119762" lon="18.445207">
				<ele>290.000000</ele>
			</trkpt>
			<trkpt lat="49.119780" lon="18.445134">
				<ele>290.000000</ele>
			</trkpt>
			<trkpt lat="49.119803" lon="18.444425">
				<ele>290.000000</ele>
			</trkpt>
			<trkpt lat="49.119815" lon="18.444002">
				<ele>290.000000</ele>
			</trkpt>
			<trkpt lat="49.119827" lon="18.443509">
				<ele>290.000000</ele>
			</trkpt>
			<trkpt lat="49.119839" lon="18.443132">
				<ele>290.000000</ele>
			</trkpt>
			<trkpt lat="49.119868" lon="18.442934">
				<ele>290.000000</ele>
			</trkpt>
			<trkpt lat="49.119868" lon="18.442836">
				<ele>290.000000</ele>
			</trkpt>
			<trkpt lat="49.119856" lon="18.442790">
				<ele>290.000000</ele>
			</trkpt>
			<trkpt lat="49.119874" lon="18.442683">
				<ele>290.000000</ele>
			</trkpt>
			<trkpt lat="49.119897" lon="18.442520">
				<ele>290.000000</ele>
			</trkpt>
			<trkpt lat="49.119909" lon="18.442421">
				<ele>290.000000</ele>
			</trkpt>
			<trkpt lat="49.119933" lon="18.442386">
				<ele>290.000000</ele>
			</trkpt>
			<trkpt lat="49.119950" lon="18.442350">
				<ele>290.000000</ele>
			</trkpt>
			<trkpt lat="49.119962" lon="18.442314">
				<ele>290.000000</ele>
			</trkpt>
			<trkpt lat="49.119980" lon="18.442260">
				<ele>290.000000</ele>
			</trkpt>
			<trkpt lat="49.120021" lon="18.441955">
				<ele>290.000000</ele>
			</trkpt>
			<trkpt lat="49.120056" lon="18.441721">
				<ele>290.000000</ele>
			</trkpt>
			<trkpt lat="49.120291" lon="18.440203">
				<ele>290.000000</ele>
			</trkpt>
			<trkpt lat="49.120332" lon="18.439880">
				<ele>290.000000</ele>
			</trkpt>
			<trkpt lat="49.120444" lon="18.438685">
				<ele>290.000000</ele>
			</trkpt>
			<trkpt lat="49.120485" lon="18.438182">
				<ele>290.000000</ele>
			</trkpt>
			<trkpt lat="49.120521" lon="18.437616">
				<ele>290.000000</ele>
			</trkpt>
			<trkpt lat="49.120503" lon="18.437427">
				<ele>290.000000</ele>
			</trkpt>
			<trkpt lat="49.120573" lon="18.436762">
				<ele>290.000000</ele>
			</trkpt>
			<trkpt lat="49.120538" lon="18.436735">
				<ele>290.000000</ele>
			</trkpt>
			<trkpt lat="49.120579" lon="18.436591">
				<ele>290.000000</ele>
			</trkpt>
			<trkpt lat="49.120550" lon="18.436574">
				<ele>290.000000</ele>
			</trkpt>
			<trkpt lat="49.120550" lon="18.436538">
				<ele>290.000000</ele>
			</trkpt>
			<trkpt lat="49.120556" lon="18.436465">
				<ele>290.000000</ele>
			</trkpt>
			<trkpt lat="49.120562" lon="18.436412">
				<ele>290.000000</ele>
			</trkpt>
			<trkpt lat="49.120568" lon="18.436349">
				<ele>290.000000</ele>
			</trkpt>
			<trkpt lat="49.120579" lon="18.436314">
				<ele>290.000000</ele>
			</trkpt>
			<trkpt lat="49.120591" lon="18.436268">
				<ele>290.000000</ele>
			</trkpt>
			<trkpt lat="49.120609" lon="18.436205">
				<ele>290.000000</ele>
			</trkpt>
			<trkpt lat="49.120597" lon="18.436169">
				<ele>290.000000</ele>
			</trkpt>
			<trkpt lat="49.120585" lon="18.436142">
				<ele>290.000000</ele>
			</trkpt>
			<trkpt lat="49.120568" lon="18.436089">
				<ele>290.000000</ele>
			</trkpt>
			<trkpt lat="49.120550" lon="18.436052">
				<ele>290.000000</ele>
			</trkpt>
			<trkpt lat="49.120638" lon="18.435926">
				<ele>290.000000</ele>
			</trkpt>
			<trkpt lat="49.120750" lon="18.435702">
				<ele>290.000000</ele>
			</trkpt>
			<trkpt lat="49.120920" lon="18.435092">
				<ele>290.000000</ele>
			</trkpt>
			<trkpt lat="49.120938" lon="18.435010">
				<ele>290.000000</ele>
			</trkpt>
			<trkpt lat="49.120950" lon="18.434966">
				<ele>290.000000</ele>
			</trkpt>
			<trkpt lat="49.120961" lon="18.434786">
				<ele>289.000000</ele>
			</trkpt>
			<trkpt lat="49.120997" lon="18.434651">
				<ele>289.000000</ele>
			</trkpt>
			<trkpt lat="49.121038" lon="18.434588">
				<ele>289.000000</ele>
			</trkpt>
			<trkpt lat="49.121155" lon="18.434624">
				<ele>289.000000</ele>
			</trkpt>
			<trkpt lat="49.121397" lon="18.433951">
				<ele>289.000000</ele>
			</trkpt>
			<trkpt lat="49.121443" lon="18.433987">
				<ele>290.000000</ele>
			</trkpt>
			<trkpt lat="49.121490" lon="18.433834">
				<ele>290.000000</ele>
			</trkpt>
			<trkpt lat="49.121514" lon="18.433842">
				<ele>290.000000</ele>
			</trkpt>
			<trkpt lat="49.121543" lon="18.433842">
				<ele>290.000000</ele>
			</trkpt>
			<trkpt lat="49.121567" lon="18.433825">
				<ele>290.000000</ele>
			</trkpt>
			<trkpt lat="49.121590" lon="18.433798">
				<ele>290.000000</ele>
			</trkpt>
			<trkpt lat="49.121608" lon="18.433762">
				<ele>290.000000</ele>
			</trkpt>
			<trkpt lat="49.121608" lon="18.433717">
				<ele>290.000000</ele>
			</trkpt>
			<trkpt lat="49.121608" lon="18.433681">
				<ele>290.000000</ele>
			</trkpt>
			<trkpt lat="49.121702" lon="18.433565">
				<ele>290.000000</ele>
			</trkpt>
			<trkpt lat="49.121996" lon="18.432720">
				<ele>290.000000</ele>
			</trkpt>
			<trkpt lat="49.122014" lon="18.432666">
				<ele>290.000000</ele>
			</trkpt>
			<trkpt lat="49.122026" lon="18.432603">
				<ele>290.000000</ele>
			</trkpt>
			<trkpt lat="49.122043" lon="18.432496">
				<ele>290.000000</ele>
			</trkpt>
			<trkpt lat="49.122055" lon="18.432379">
				<ele>290.000000</ele>
			</trkpt>
			<trkpt lat="49.122061" lon="18.432289">
				<ele>290.000000</ele>
			</trkpt>
			<trkpt lat="49.122091" lon="18.432199">
				<ele>290.000000</ele>
			</trkpt>
			<trkpt lat="49.122119" lon="18.432110">
				<ele>290.000000</ele>
			</trkpt>
			<trkpt lat="49.122131" lon="18.432083">
				<ele>290.000000</ele>
			</trkpt>
		</trkseg>
	</trk>
</gpx>

