{
  "type": "FeatureCollection",
  "features": [
    {
      "type": "Feature",
      "properties": {
        "slug": "sk-ovciarsko-hricovsky-hrad",
        "kind": "route",
        "name": "Ovčiarsko - Hričovský hrad",
        "country": "SK",
        "region": "Žilina",
        "distance_m": 11671,
        "ascent_m": 555,
        "descent_m": 553,
        "loop": true,
        "strava_id": "13534212696",
        "strava_token": "mLYSaYEEvYjtzBCp8JeWXDn27EbiAKes-gs3GToZK3w",
        "parking": "https://maps.app.goo.gl/jH7DWwgEdSiqNJNH6",
        "image": "image.webp",
        "weather_point": "ovčiarsko_slovensko_3058313",
        "sports": {
          "run": {
            "duration_min": 80,
            "difficulty": "medium"
          }
        },
        "tags": ["okruh", "obľúbené", "ranný beh", "single track", "pes"],
        "description": {
          "sk": "Nádherná trasa v blízkosti Žiliny. Rozhodne odporúčam na východ alebo západ slnka. Od obecného úradu sa ide cez lúku s kravami. Na vrchole sa vchádza do lesa na single-track. Tým sa prebehne na vyhliadku nad Hričovským Podhradím (ale môže sa vynechať). Z vyhliadky dole do dediny a hneď hore na hrad Hričov. Stále po červenej. Z hradu popri altánku chvílu, asi 100 metrov, po zvážnici a následne odbočiť doľava na širšiu zvážnicu. Táto mierne stúpa na lúku s ovcami. Na nej sa treba držať vpravo pri lese. Niekde tam je odbočka do lesa - tou sa zbehne na čistinku, kde je vrak bielej dodávky. Tá je neďaleko Paštinej Závady. Tu sa len prebehne cez cestu a posledné stúpanie cez lúku, okolo ďalších kráv. Na vrchole je vidno poľovnícky posed. Treba ísť smerom k nemu a bežať za neho. Tu je malá odbočka doľava pred drevenou búdou v lese a tá ústí pri prvej lúke s kravami. Od nej len dole na parkovisko."
        }
      },
      "geometry": {
        "type": "LineString",
        "coordinates": [
          [18.66176, 49.22339],
          [18.66141, 49.22333],
          [18.66085, 49.22358],
          [18.65929, 49.22369],
          [18.65841, 49.22427],
          [18.65767, 49.22451],
          [18.65504, 49.2248],
          [18.65137, 49.2248],
          [18.65078, 49.22492],
          [18.65091, 49.2244],
          [18.65059, 49.22401],
          [18.65006, 49.22359],
          [18.64962, 49.22286],
          [18.64897, 49.22256],
          [18.64881, 49.22209],
          [18.64773, 49.22129],
          [18.64831, 49.22075],
          [18.64794, 49.22021],
          [18.64708, 49.21975],
          [18.64591, 49.21943],
          [18.645, 49.21932],
          [18.64445, 49.21955],
          [18.6435, 49.21958],
          [18.6422, 49.21896],
          [18.64155, 49.21923],
          [18.64035, 49.21893],
          [18.6394, 49.21897],
          [18.63878, 49.21924],
          [18.63714, 49.21926],
          [18.63643, 49.21946],
          [18.63607, 49.22035],
          [18.63563, 49.22025],
          [18.63506, 49.21934],
          [18.63433, 49.21916],
          [18.63335, 49.22022],
          [18.63213, 49.22048],
          [18.63154, 49.22095],
          [18.63045, 49.22105],
          [18.62951, 49.22144],
          [18.62729, 49.22163],
          [18.62637, 49.22271],
          [18.62432, 49.22265],
          [18.62419, 49.22248],
          [18.62472, 49.22273],
          [18.62592, 49.22274],
          [18.62587, 49.22154],
          [18.62515, 49.22113],
          [18.62473, 49.22115],
          [18.62443, 49.22149],
          [18.62407, 49.22141],
          [18.62379, 49.2205],
          [18.62311, 49.22071],
          [18.62289, 49.22045],
          [18.62252, 49.22037],
          [18.6219, 49.21957],
          [18.6221, 49.21917],
          [18.62189, 49.21797],
          [18.62123, 49.21659],
          [18.62149, 49.21529],
          [18.62201, 49.21457],
          [18.62149, 49.21327],
          [18.62161, 49.21239],
          [18.62129, 49.21193],
          [18.6217, 49.21144],
          [18.62127, 49.21087],
          [18.6203, 49.21036],
          [18.62004, 49.21051],
          [18.6198, 49.21112],
          [18.62007, 49.21151],
          [18.62007, 49.21124],
          [18.61985, 49.21115],
          [18.62019, 49.21024],
          [18.62008, 49.20993],
          [18.61958, 49.20954],
          [18.6203, 49.20847],
          [18.62071, 49.2074],
          [18.62194, 49.20732],
          [18.62336, 49.20685],
          [18.62407, 49.20677],
          [18.6263, 49.20683],
          [18.62664, 49.20673],
          [18.62673, 49.20706],
          [18.6275, 49.20691],
          [18.62954, 49.208],
          [18.63062, 49.20813],
          [18.63128, 49.20849],
          [18.63187, 49.20854],
          [18.63258, 49.20884],
          [18.63305, 49.20927],
          [18.6333, 49.20983],
          [18.63403, 49.21039],
          [18.63452, 49.21133],
          [18.63421, 49.21155],
          [18.63508, 49.2122],
          [18.63606, 49.2124],
          [18.63684, 49.21235],
          [18.63752, 49.21189],
          [18.63818, 49.21189],
          [18.63877, 49.21145],
          [18.63919, 49.2122],
          [18.6412, 49.21273],
          [18.64275, 49.21282],
          [18.64508, 49.21349],
          [18.64507, 49.21365],
          [18.64457, 49.21374],
          [18.64426, 49.21404],
          [18.64504, 49.21466],
          [18.64533, 49.21543],
          [18.64574, 49.21582],
          [18.64479, 49.21581],
          [18.64244, 49.21514],
          [18.64216, 49.2154],
          [18.64223, 49.2161],
          [18.64356, 49.21755],
          [18.64481, 49.21806],
          [18.64582, 49.21809],
          [18.64889, 49.21896],
          [18.65014, 49.21992],
          [18.65083, 49.22083],
          [18.6501, 49.2215],
          [18.65097, 49.22258],
          [18.65141, 49.22278],
          [18.6515, 49.22449],
          [18.65174, 49.22481],
          [18.65399, 49.22485],
          [18.65647, 49.22467],
          [18.6582, 49.22442],
          [18.65942, 49.22368],
          [18.66088, 49.22357],
          [18.6612, 49.22339],
          [18.66189, 49.22357]
        ]
      }
    },
    {
      "type": "Feature",
      "properties": {
        "slug": "sk-centralny-hreben-zapadnych-tatier",
        "kind": "route",
        "name": "Centrálny hrebeň Západných Tatier",
        "country": "SK",
        "region": "Západné Tatry",
        "distance_m": 22579,
        "ascent_m": 2200,
        "descent_m": 2188,
        "loop": true,
        "strava_id": "19936039765",
        "strava_token": "zu7M_JppIAZ1XmQjH9rgt9-eZn2SHJfUZLhFV-tLMXs",
        "parking": "https://maps.app.goo.gl/BFdpqbW5u7urC9Mz8",
        "image": "image.webp",
        "weather_point": "ostrý-roháč_slovensko_3058324",
        "sports": {
          "run": {
            "duration_min": 420,
            "difficulty": "hard"
          }
        },
        "tags": ["okruh", "chata", "VHT", "obľúbené", "štít", "vrchol"],
        "description": {
          "sk": "Nádherná trasa v srdci Západných Tatier. Trasa prechádza cez najznámejšie vrcholy tohto pohoria. Dá zabrať - beh spojený s občasným lezením cez skaly a reťaze.\n\nTrasa začína na parkovisku v Roháče-Spálená. Z neho sa strmo stúpa na prvý kopec - Predný Salatín. Z neho trasa už pokračuje po hrebeni cez Brestovú, Salatín, Spálená, Pachoľa. Z nej sa zbieha do Baníkovského sedla (prvá možnosť menšieho okruku) a znova hore Baníkov, Hrubú kopu, Tri kopy a dole na Smutné sedlo (druhá možnosť menšieho okruhu - cez plesá). Zo sedla sa stúpa na Plačlivé, Ostrý Roháč a cez Jamnické sedlo je zbeh na Volovec a Rákoň. Z neho rýchlim zostupom dole na Ťatliakovu chatu. Na chate sa dá doplniť voda a už len po asfaltovej ceste späť na parkovisko. \n\nNa trase, hlavne medzi Ostrým Roháčom a Smutným sedlom, sa nachádzajú exponované úseky zaistené lanom. Je to bezpečné ale v daždi nepríjmné."
        }
      },
      "geometry": {
        "type": "LineString",
        "coordinates": [
          [19.71347, 49.2382],
          [19.71369, 49.23688],
          [19.71347, 49.23675],
          [19.71362, 49.23567],
          [19.71306, 49.23475],
          [19.71291, 49.2348],
          [19.71297, 49.23465],
          [19.71269, 49.23468],
          [19.71261, 49.23416],
          [19.71137, 49.23385],
          [19.70955, 49.23307],
          [19.70679, 49.23279],
          [19.7062, 49.23259],
          [19.70615, 49.23315],
          [19.70527, 49.2328],
          [19.70507, 49.23276],
          [19.70498, 49.23292],
          [19.70434, 49.23275],
          [19.70419, 49.23289],
          [19.70366, 49.23257],
          [19.70322, 49.23251],
          [19.7033, 49.23268],
          [19.70283, 49.23243],
          [19.702, 49.23227],
          [19.70188, 49.23304],
          [19.70113, 49.23296],
          [19.70002, 49.23257],
          [19.70004, 49.23302],
          [19.69954, 49.23301],
          [19.69886, 49.23275],
          [19.69878, 49.23324],
          [19.69825, 49.23294],
          [19.69815, 49.2331],
          [19.6979, 49.23305],
          [19.69782, 49.23327],
          [19.69663, 49.23318],
          [19.69615, 49.23275],
          [19.69623, 49.23246],
          [19.69537, 49.23034],
          [19.69435, 49.22931],
          [19.69456, 49.22915],
          [19.69435, 49.22821],
          [19.69493, 49.22779],
          [19.69451, 49.22762],
          [19.69318, 49.22621],
          [19.6927, 49.22595],
          [19.69295, 49.22594],
          [19.69233, 49.22551],
          [19.69229, 49.22529],
          [19.68883, 49.22333],
          [19.6866, 49.22314],
          [19.68527, 49.22321],
          [19.68358, 49.22274],
          [19.68314, 49.22287],
          [19.68288, 49.22265],
          [19.68253, 49.22293],
          [19.68223, 49.22272],
          [19.68175, 49.22157],
          [19.68187, 49.22066],
          [19.68137, 49.21998],
          [19.68172, 49.21927],
          [19.68155, 49.21885],
          [19.68183, 49.21854],
          [19.68131, 49.2178],
          [19.68201, 49.21733],
          [19.68177, 49.21651],
          [19.68249, 49.21619],
          [19.68295, 49.21568],
          [19.68378, 49.21537],
          [19.68417, 49.21498],
          [19.68605, 49.21384],
          [19.68643, 49.21302],
          [19.68738, 49.21201],
          [19.68832, 49.2118],
          [19.68851, 49.21164],
          [19.68841, 49.21134],
          [19.68944, 49.21108],
          [19.69021, 49.21047],
          [19.6924, 49.21016],
          [19.6928, 49.20989],
          [19.69365, 49.20976],
          [19.69362, 49.20965],
          [19.69467, 49.20932],
          [19.69504, 49.20906],
          [19.69581, 49.209],
          [19.69617, 49.20911],
          [19.69676, 49.2089],
          [19.69807, 49.20885],
          [19.69876, 49.20856],
          [19.69968, 49.20855],
          [19.70065, 49.20819],
          [19.70175, 49.20834],
          [19.7026, 49.20817],
          [19.70314, 49.20766],
          [19.70415, 49.20766],
          [19.70456, 49.20753],
          [19.70507, 49.2076],
          [19.70542, 49.20739],
          [19.70583, 49.20748],
          [19.70672, 49.20723],
          [19.70727, 49.20645],
          [19.7074, 49.20576],
          [19.70724, 49.20521],
          [19.70606, 49.20365],
          [19.70466, 49.20306],
          [19.70419, 49.20264],
          [19.70408, 49.20214],
          [19.70353, 49.20207],
          [19.70273, 49.20143],
          [19.70329, 49.20085],
          [19.70358, 49.20082],
          [19.70367, 49.20063],
          [19.70588, 49.19941],
          [19.7074, 49.19893],
          [19.70816, 49.19889],
          [19.7088, 49.19821],
          [19.70949, 49.1981],
          [19.70979, 49.19781],
          [19.71042, 49.19805],
          [19.71058, 49.19829],
          [19.7122, 49.19869],
          [19.71263, 49.19858],
          [19.71323, 49.1988],
          [19.71434, 49.19893],
          [19.71518, 49.19884],
          [19.71516, 49.19871],
          [19.71568, 49.1987],
          [19.71565, 49.19861],
          [19.71621, 49.19864],
          [19.71682, 49.19898],
          [19.71744, 49.19962],
          [19.71985, 49.2001],
          [19.72036, 49.20035],
          [19.72267, 49.20024],
          [19.7235, 49.19984],
          [19.72392, 49.20005],
          [19.72547, 49.20024],
          [19.72793, 49.19988],
          [19.72852, 49.19996],
          [19.72884, 49.19978],
          [19.72953, 49.2],
          [19.73042, 49.19992],
          [19.73052, 49.19968],
          [19.73201, 49.19876],
          [19.73236, 49.19835],
          [19.73287, 49.19821],
          [19.73303, 49.19789],
          [19.73333, 49.1979],
          [19.73358, 49.19763],
          [19.7342, 49.19756],
          [19.73588, 49.1968],
          [19.73658, 49.1969],
          [19.73766, 49.19662],
          [19.73799, 49.19634],
          [19.73895, 49.19603],
          [19.73968, 49.19601],
          [19.74015, 49.19626],
          [19.74225, 49.1964],
          [19.74372, 49.1969],
          [19.74533, 49.197],
          [19.74624, 49.19723],
          [19.74749, 49.197],
          [19.74775, 49.19717],
          [19.74845, 49.19707],
          [19.74863, 49.19674],
          [19.74907, 49.19647],
          [19.7498, 49.197],
          [19.75037, 49.19702],
          [19.75046, 49.19738],
          [19.7511, 49.19759],
          [19.75174, 49.19812],
          [19.75202, 49.19812],
          [19.75232, 49.19852],
          [19.75393, 49.19947],
          [19.75586, 49.19997],
          [19.75706, 49.2],
          [19.75715, 49.20017],
          [19.75793, 49.20031],
          [19.75836, 49.20066],
          [19.75912, 49.20076],
          [19.75885, 49.20094],
          [19.75902, 49.20128],
          [19.75928, 49.20132],
          [19.7589, 49.20321],
          [19.75976, 49.20415],
          [19.7598, 49.20452],
          [19.76041, 49.20502],
          [19.76103, 49.20526],
          [19.76168, 49.20611],
          [19.76158, 49.20621],
          [19.76253, 49.20677],
          [19.76316, 49.20756],
          [19.76296, 49.20824],
          [19.76261, 49.2084],
          [19.76232, 49.20891],
          [19.76163, 49.20908],
          [19.76161, 49.20947],
          [19.76055, 49.21019],
          [19.75985, 49.2113],
          [19.75896, 49.21377],
          [19.75858, 49.21567],
          [19.75817, 49.21628],
          [19.75521, 49.21804],
          [19.75308, 49.22018],
          [19.75176, 49.22033],
          [19.75137, 49.22051],
          [19.75094, 49.22046],
          [19.74996, 49.22122],
          [19.74969, 49.21986],
          [19.74994, 49.21963],
          [19.74948, 49.21965],
          [19.74915, 49.21987],
          [19.74916, 49.21948],
          [19.74969, 49.21914],
          [19.74939, 49.21855],
          [19.74962, 49.21789],
          [19.74922, 49.21799],
          [19.74941, 49.21753],
          [19.74916, 49.21747],
          [19.74914, 49.21697],
          [19.74846, 49.21711],
          [19.74828, 49.21626],
          [19.74786, 49.21669],
          [19.74738, 49.21682],
          [19.74692, 49.21648],
          [19.7469, 49.21582],
          [19.74723, 49.21544],
          [19.7472, 49.21495],
          [19.74775, 49.2142],
          [19.74747, 49.21382],
          [19.7477, 49.21382],
          [19.74769, 49.21368],
          [19.74653, 49.21476],
          [19.7449, 49.21533],
          [19.74379, 49.21648],
          [19.74304, 49.21693],
          [19.74213, 49.21723],
          [19.73704, 49.21826],
          [19.73375, 49.21933],
          [19.73273, 49.22017],
          [19.73091, 49.22109],
          [19.73026, 49.22186],
          [19.72901, 49.22253],
          [19.72794, 49.22347],
          [19.72486, 49.22499],
          [19.72427, 49.22659],
          [19.72269, 49.22825],
          [19.72159, 49.23117],
          [19.71849, 49.23637],
          [19.71812, 49.23667],
          [19.71781, 49.23626],
          [19.7175, 49.2363],
          [19.71704, 49.23668],
          [19.71681, 49.23746],
          [19.71594, 49.23805],
          [19.71404, 49.23815],
          [19.71397, 49.23826]
        ]
      }
    },
    {
      "type": "Feature",
      "properties": {
        "slug": "sk-vedlajsi-hreben-zapadnych-tatier",
        "kind": "route",
        "name": "Vedľajší hrebeň Západných Tatier",
        "country": "SK",
        "region": "Západné Tatry",
        "distance_m": 29404,
        "ascent_m": 2597,
        "descent_m": 2593,
        "loop": true,
        "strava_id": "11886051365",
        "strava_token": "qayem1T-rqLHlGCkmRabqs_bCicG6kldcQtc1uVGCG4",
        "parking": "https://maps.app.goo.gl/3rBXxfoy8SKqXeXh9",
        "image": "image.webp",
        "sports": {
          "run": {
            "duration_min": 420,
            "difficulty": "hard"
          }
        },
        "tags": ["okruh", "VHT", "štít", "vrchol"],
        "description": {
          "sk": "Krásny okruh v Západných Tatrách. Trasa je menej technicky náročná oproti cetrálnemu hrebeňu - je tu menej exponovaných úsekov avšak na spoločnej trase treba absolvovať pár reťazí.\n\nZ parkoviska v Račkovej doline je dlhé tiahle stúpanie na prvý vrchol - Baranec. Z neho po hreneni pokračuje trasa na Žiarske sedlo. Pod ním je Žiarska chata ale treba počítať s klesaním. Stúpaním sa napája centrálny hrebeň - prvý bod je vrchol Plačlivé. Z neho cez Ostrý Roháč na Volovec. Na tomto úseku sú reťaze. Z Volovca sa odbočuje doprava na Hrubý vrch, Končistú a posledný Klin. Pod Sivou vežou sa okruh točí dole do doliny. Dolina je nekonečná ale na konci, pri parkovisku, je možné sa okúpať v rieke."
        }
      },
      "geometry": {
        "type": "LineString",
        "coordinates": [
          [19.78999, 49.13343],
          [19.78951, 49.13312],
          [19.78731, 49.13414],
          [19.7847, 49.13383],
          [19.78277, 49.13381],
          [19.78417, 49.13405],
          [19.78524, 49.13463],
          [19.78581, 49.13518],
          [19.7857, 49.13622],
          [19.78605, 49.13636],
          [19.78673, 49.13614],
          [19.78664, 49.13631],
          [19.78784, 49.13666],
          [19.78727, 49.13719],
          [19.788, 49.13762],
          [19.78717, 49.1382],
          [19.78772, 49.13824],
          [19.78804, 49.13844],
          [19.78846, 49.13925],
          [19.78763, 49.13931],
          [19.78799, 49.13974],
          [19.78742, 49.1399],
          [19.78774, 49.1402],
          [19.78749, 49.14072],
          [19.78761, 49.14102],
          [19.78728, 49.14109],
          [19.78742, 49.14137],
          [19.78728, 49.14166],
          [19.78697, 49.14175],
          [19.78707, 49.14209],
          [19.78592, 49.1429],
          [19.78578, 49.14333],
          [19.78534, 49.14374],
          [19.78546, 49.14387],
          [19.78545, 49.14376],
          [19.78519, 49.14382],
          [19.78509, 49.14504],
          [19.78402, 49.14631],
          [19.78187, 49.14726],
          [19.7794, 49.14752],
          [19.77815, 49.14789],
          [19.77731, 49.14856],
          [19.77609, 49.14917],
          [19.77365, 49.14969],
          [19.77302, 49.15024],
          [19.77203, 49.15041],
          [19.77102, 49.15132],
          [19.77001, 49.15179],
          [19.76998, 49.15196],
          [19.76781, 49.15338],
          [19.7669, 49.15462],
          [19.76639, 49.1549],
          [19.76303, 49.15617],
          [19.76184, 49.15623],
          [19.76046, 49.15658],
          [19.75673, 49.15823],
          [19.75557, 49.15977],
          [19.75487, 49.16194],
          [19.7534, 49.16389],
          [19.75201, 49.16524],
          [19.75106, 49.16699],
          [19.74856, 49.16925],
          [19.74729, 49.17006],
          [19.74629, 49.17142],
          [19.74608, 49.17204],
          [19.74442, 49.17244],
          [19.74299, 49.17322],
          [19.7419, 49.17347],
          [19.74081, 49.1735],
          [19.74136, 49.1737],
          [19.74159, 49.17411],
          [19.74174, 49.17496],
          [19.7416, 49.17503],
          [19.74189, 49.17552],
          [19.74158, 49.17596],
          [19.74182, 49.17666],
          [19.74172, 49.17748],
          [19.74238, 49.17938],
          [19.74471, 49.18114],
          [19.74631, 49.18174],
          [19.7465, 49.18201],
          [19.74739, 49.18233],
          [19.74862, 49.18308],
          [19.74906, 49.18382],
          [19.74931, 49.18389],
          [19.75013, 49.18575],
          [19.75183, 49.187],
          [19.75242, 49.18782],
          [19.75262, 49.18955],
          [19.75221, 49.19091],
          [19.75186, 49.1912],
          [19.75171, 49.19196],
          [19.751, 49.19277],
          [19.7508, 49.19343],
          [19.75018, 49.19383],
          [19.75004, 49.19477],
          [19.74985, 49.19517],
          [19.74947, 49.19534],
          [19.74949, 49.19581],
          [19.74904, 49.19648],
          [19.74949, 49.19664],
          [19.74977, 49.19696],
          [19.75035, 49.19702],
          [19.75051, 49.19742],
          [19.75129, 49.19773],
          [19.75187, 49.19819],
          [19.75207, 49.19815],
          [19.75231, 49.19854],
          [19.75398, 49.19952],
          [19.75453, 49.1997],
          [19.7551, 49.19966],
          [19.75596, 49.19999],
          [19.75712, 49.20001],
          [19.75729, 49.20031],
          [19.75768, 49.20022],
          [19.75854, 49.20071],
          [19.75911, 49.20077],
          [19.7588, 49.20105],
          [19.75924, 49.20151],
          [19.7589, 49.20324],
          [19.75975, 49.20414],
          [19.75982, 49.20454],
          [19.76036, 49.20502],
          [19.76103, 49.20526],
          [19.76162, 49.2062],
          [19.76286, 49.20711],
          [19.76315, 49.20759],
          [19.76358, 49.20738],
          [19.76505, 49.20714],
          [19.7659, 49.20655],
          [19.76761, 49.20591],
          [19.76868, 49.20605],
          [19.77024, 49.20589],
          [19.77168, 49.20554],
          [19.773, 49.20566],
          [19.77421, 49.20512],
          [19.77502, 49.20502],
          [19.77571, 49.20514],
          [19.77694, 49.20488],
          [19.78006, 49.20322],
          [19.78091, 49.20204],
          [19.78091, 49.20139],
          [19.78173, 49.20025],
          [19.78344, 49.19947],
          [19.78429, 49.19929],
          [19.78617, 49.19947],
          [19.78714, 49.1991],
          [19.79052, 49.19918],
          [19.79222, 49.19887],
          [19.79282, 49.19895],
          [19.7929, 49.1988],
          [19.79354, 49.19877],
          [19.79498, 49.19835],
          [19.79525, 49.19881],
          [19.79627, 49.1997],
          [19.79912, 49.20147],
          [19.80092, 49.20237],
          [19.80132, 49.20291],
          [19.80363, 49.20458],
          [19.8052, 49.20489],
          [19.80755, 49.20568],
          [19.80825, 49.20518],
          [19.81099, 49.20393],
          [19.81577, 49.20255],
          [19.81668, 49.20186],
          [19.81693, 49.2012],
          [19.8178, 49.20125],
          [19.81776, 49.20088],
          [19.81852, 49.20072],
          [19.81868, 49.20017],
          [19.81992, 49.19942],
          [19.81994, 49.19963],
          [19.82134, 49.20078],
          [19.82223, 49.20092],
          [19.82282, 49.20138],
          [19.82382, 49.20125],
          [19.825, 49.20151],
          [19.82658, 49.20135],
          [19.82772, 49.2014],
          [19.83001, 49.20055],
          [19.82985, 49.20099],
          [19.82993, 49.20114],
          [19.82989, 49.20086],
          [19.82998, 49.20114],
          [19.82999, 49.20015],
          [19.82906, 49.1993],
          [19.82914, 49.19795],
          [19.82773, 49.19736],
          [19.82761, 49.19709],
          [19.82706, 49.1944],
          [19.82785, 49.19299],
          [19.82937, 49.1919],
          [19.82848, 49.18975],
          [19.82759, 49.18902],
          [19.82719, 49.1883],
          [19.82542, 49.18719],
          [19.82412, 49.18691],
          [19.82257, 49.18699],
          [19.8208, 49.18679],
          [19.81993, 49.18705],
          [19.81921, 49.18704],
          [19.81757, 49.18657],
          [19.81656, 49.18605],
          [19.8162, 49.18554],
          [19.81625, 49.1853],
          [19.81569, 49.18514],
          [19.81482, 49.18419],
          [19.81507, 49.18388],
          [19.81433, 49.18319],
          [19.81361, 49.18202],
          [19.81283, 49.18162],
          [19.81241, 49.18082],
          [19.81138, 49.18009],
          [19.81119, 49.17976],
          [19.81134, 49.17921],
          [19.81117, 49.17849],
          [19.81066, 49.17757],
          [19.81057, 49.17623],
          [19.80991, 49.17542],
          [19.81043, 49.17446],
          [19.8105, 49.1739],
          [19.81132, 49.17301],
          [19.81058, 49.17104],
          [19.81067, 49.17071],
          [19.81016, 49.17017],
          [19.81005, 49.16948],
          [19.81033, 49.16891],
          [19.80968, 49.16865],
          [19.80929, 49.16788],
          [19.80947, 49.16741],
          [19.81059, 49.16622],
          [19.80974, 49.16502],
          [19.80975, 49.1639],
          [19.80922, 49.1634],
          [19.80897, 49.16272],
          [19.80833, 49.16217],
          [19.80839, 49.16042],
          [19.80759, 49.15955],
          [19.80683, 49.15758],
          [19.80621, 49.15678],
          [19.80511, 49.15627],
          [19.80459, 49.15568],
          [19.80319, 49.15482],
          [19.80234, 49.15377],
          [19.80112, 49.15272],
          [19.79968, 49.15219],
          [19.79852, 49.15125],
          [19.79621, 49.15047],
          [19.79472, 49.14949],
          [19.79387, 49.14854],
          [19.79408, 49.14781],
          [19.79529, 49.14715],
          [19.7953, 49.14658],
          [19.79625, 49.14502],
          [19.79651, 49.14495],
          [19.79695, 49.14405],
          [19.79645, 49.1435],
          [19.79607, 49.1406],
          [19.79612, 49.14042],
          [19.79635, 49.14043],
          [19.79631, 49.14058],
          [19.79596, 49.14047],
          [19.79596, 49.14012],
          [19.79378, 49.13796],
          [19.79284, 49.13755],
          [19.79139, 49.13646],
          [19.79118, 49.13589],
          [19.79164, 49.13461],
          [19.79141, 49.13391],
          [19.79099, 49.13363]
        ]
      }
    },
    {
      "type": "Feature",
      "properties": {
        "slug": "sk-baranec-ziarska-chata",
        "kind": "route",
        "name": "Baranec - Žiarska chata",
        "country": "SK",
        "region": "Západné Tatry",
        "distance_m": 17731,
        "ascent_m": 1403,
        "descent_m": 1388,
        "loop": true,
        "strava_id": "11942860655",
        "strava_token": "T4cL-hACL0NkwgIxsR2k-rKBTD9HBZhfUM64H4qIQXs",
        "parking": "https://maps.app.goo.gl/eZCZTVUi2W3hxb1b6",
        "image": "image.webp",
        "sports": {
          "run": {
            "duration_min": 240,
            "difficulty": "medium"
          }
        },
        "tags": ["okruh", "VHT", "štít", "vrchol", "chata"],
        "description": {
          "sk": "Jednoduchší okruh v Západných Tatrách. Oproti iným trasám je pomerne ľahká - žiadne lezenie cez reťaze.\n\nZ parkoviska začína trasa stúpať. Po tiahlom stúpaní prichádza prvý kopec - Baranec. Veľmi obľúbený aj v zime. Z neho hrebeňovou trasou na Žiarske sedlo. Dole cez Žiarske pleso na Žiarsku chatu. V prípade nudy sa dá vybehnúť zo sedla na Plačlivé a späť na chatu. Celá trasa je technicky nenáročná a ponúka krásne výhľady za (relatívne) málo úsilia."
        }
      },
      "geometry": {
        "type": "LineString",
        "coordinates": [
          [19.70006, 49.14463],
          [19.7005, 49.14495],
          [19.7008, 49.14494],
          [19.70042, 49.14369],
          [19.70081, 49.14341],
          [19.70094, 49.14351],
          [19.70154, 49.14328],
          [19.70313, 49.14326],
          [19.70595, 49.14354],
          [19.70736, 49.14354],
          [19.70694, 49.1441],
          [19.70584, 49.14489],
          [19.70554, 49.14568],
          [19.70641, 49.14594],
          [19.70655, 49.14621],
          [19.70716, 49.1459],
          [19.70835, 49.14621],
          [19.70989, 49.14621],
          [19.70963, 49.14661],
          [19.70984, 49.14686],
          [19.71064, 49.1467],
          [19.71055, 49.14707],
          [19.71095, 49.14736],
          [19.71079, 49.14766],
          [19.71096, 49.14798],
          [19.71137, 49.14774],
          [19.71165, 49.14805],
          [19.71203, 49.14791],
          [19.71222, 49.14803],
          [19.71392, 49.14809],
          [19.71532, 49.14848],
          [19.71644, 49.14839],
          [19.7179, 49.14852],
          [19.71844, 49.14905],
          [19.71883, 49.14909],
          [19.7192, 49.14887],
          [19.71947, 49.14913],
          [19.72011, 49.14913],
          [19.72038, 49.14953],
          [19.72095, 49.14971],
          [19.72099, 49.1499],
          [19.7222, 49.14962],
          [19.72243, 49.15008],
          [19.72308, 49.14988],
          [19.72323, 49.15021],
          [19.7236, 49.15018],
          [19.72383, 49.15035],
          [19.72415, 49.1502],
          [19.72539, 49.15057],
          [19.7267, 49.15063],
          [19.72903, 49.15138],
          [19.73015, 49.15242],
          [19.73122, 49.15301],
          [19.73194, 49.15422],
          [19.7336, 49.15628],
          [19.73402, 49.15756],
          [19.73489, 49.15853],
          [19.7351, 49.15991],
          [19.73532, 49.16011],
          [19.73477, 49.16102],
          [19.73483, 49.16212],
          [19.73455, 49.16291],
          [19.73536, 49.16379],
          [19.73579, 49.16539],
          [19.73637, 49.16645],
          [19.73602, 49.16808],
          [19.73639, 49.16878],
          [19.73751, 49.16969],
          [19.74083, 49.17348],
          [19.74025, 49.17335],
          [19.74023, 49.17347],
          [19.74113, 49.17358],
          [19.74149, 49.17381],
          [19.74185, 49.17489],
          [19.74165, 49.17515],
          [19.74188, 49.17551],
          [19.74157, 49.17594],
          [19.74181, 49.17666],
          [19.74171, 49.17737],
          [19.74235, 49.17934],
          [19.74431, 49.18091],
          [19.74591, 49.18169],
          [19.74627, 49.18171],
          [19.74649, 49.182],
          [19.74855, 49.18304],
          [19.74943, 49.18416],
          [19.74965, 49.18506],
          [19.75015, 49.18583],
          [19.75165, 49.18684],
          [19.75244, 49.18783],
          [19.75258, 49.18992],
          [19.75223, 49.19036],
          [19.75221, 49.19093],
          [19.75187, 49.19121],
          [19.75168, 49.19205],
          [19.75082, 49.19328],
          [19.74772, 49.19314],
          [19.74742, 49.19283],
          [19.74729, 49.19222],
          [19.74644, 49.1925],
          [19.74563, 49.19235],
          [19.74516, 49.19245],
          [19.74241, 49.19146],
          [19.74151, 49.19066],
          [19.74063, 49.1903],
          [19.74028, 49.19025],
          [19.7395, 49.19044],
          [19.73928, 49.19019],
          [19.73848, 49.19015],
          [19.73897, 49.18935],
          [19.73882, 49.18898],
          [19.73758, 49.18807],
          [19.73609, 49.18736],
          [19.73552, 49.18685],
          [19.73394, 49.18622],
          [19.731, 49.18558],
          [19.72604, 49.18497],
          [19.7253, 49.18435],
          [19.72382, 49.18351],
          [19.7214, 49.18238],
          [19.72115, 49.18198],
          [19.72017, 49.18173],
          [19.72017, 49.18151],
          [19.71934, 49.18106],
          [19.71943, 49.18093],
          [19.71829, 49.18038],
          [19.71757, 49.18036],
          [19.71722, 49.18009],
          [19.71641, 49.17984],
          [19.71451, 49.17719],
          [19.714, 49.17602],
          [19.71431, 49.17554],
          [19.71497, 49.17605],
          [19.71532, 49.176],
          [19.71551, 49.17503],
          [19.71457, 49.17402],
          [19.71436, 49.17277],
          [19.71332, 49.17225],
          [19.71411, 49.17107],
          [19.71378, 49.17057],
          [19.71302, 49.16735],
          [19.71254, 49.16633],
          [19.71294, 49.16391],
          [19.7127, 49.16249],
          [19.71317, 49.16142],
          [19.71336, 49.15988],
          [19.71371, 49.15939],
          [19.71449, 49.15888],
          [19.7143, 49.15793],
          [19.71451, 49.15649],
          [19.7143, 49.15595],
          [19.71291, 49.15523],
          [19.71221, 49.1545],
          [19.71326, 49.15487],
          [19.71397, 49.15479],
          [19.71425, 49.15455],
          [19.71126, 49.15259],
          [19.70711, 49.15069],
          [19.70493, 49.14901],
          [19.70277, 49.14669],
          [19.70012, 49.14461]
        ]
      }
    },
    {
      "type": "Feature",
      "properties": {
        "slug": "pl-dolina-chocholowska",
        "kind": "route",
        "name": "Dolina Chochołowska",
        "country": "PL",
        "region": "Zakopane",
        "distance_m": 17994,
        "ascent_m": 286,
        "descent_m": 295,
        "loop": true,
        "strava_id": "12853010528",
        "strava_token": "JHXWdaNxgIvB7ry7rtNy9SUeG2Goor6vyDtiF8i0X1o",
        "parking": "https://maps.app.goo.gl/6Pr4Fs1FAeqQLqoj8",
        "image": "image.webp",
        "weather_point": "chochołów_poland_3101725",
        "sports": {
          "hike": {
            "duration_min": 300,
            "difficulty": "easy"
          }
        },
        "tags": ["tam a späť", "chata", "dolina", "pes", "rodina"],
        "description": {
          "sk": "Krásna trasa po doline aj so psami (pozor, musia byť na vôdzke) alebo na prechádzku s rodinou. Na začiatku je veľa možností na parkovanie, treba si len vybrať na základe recenzií. Hneď v úvode sa dajú kúpiť v rôznych stánkoch grilované syrečky s džemom. Dolina je krásna, cestou je vidieť štíty Západných Tatier. Na konci je chata s občerstvením. Blízko chaty sú drevenné salaše a počas jesene tu rastú nejaké fialové kvety a toto miesto je dosť vyhľadávané."
        }
      },
      "geometry": {
        "type": "LineString",
        "coordinates": [
          [19.8473, 49.28751],
          [19.84021, 49.28124],
          [19.83997, 49.28108],
          [19.83974, 49.28124],
          [19.83994, 49.28101],
          [19.83906, 49.28027],
          [19.83529, 49.2783],
          [19.83267, 49.27752],
          [19.83136, 49.27659],
          [19.82995, 49.2761],
          [19.82851, 49.27582],
          [19.82677, 49.27498],
          [19.82549, 49.27473],
          [19.82075, 49.27184],
          [19.81732, 49.26877],
          [19.81643, 49.26761],
          [19.81614, 49.26676],
          [19.81577, 49.26666],
          [19.81602, 49.26657],
          [19.81615, 49.26453],
          [19.81669, 49.26188],
          [19.81599, 49.26042],
          [19.81604, 49.26011],
          [19.81566, 49.25973],
          [19.81516, 49.25861],
          [19.81556, 49.25625],
          [19.81527, 49.25412],
          [19.81538, 49.2526],
          [19.81483, 49.2507],
          [19.81484, 49.2498],
          [19.81419, 49.24864],
          [19.81409, 49.24781],
          [19.81299, 49.24644],
          [19.81294, 49.24553],
          [19.81173, 49.24442],
          [19.81048, 49.24284],
          [19.80781, 49.24152],
          [19.80668, 49.24006],
          [19.80612, 49.23972],
          [19.8027, 49.23921],
          [19.80204, 49.23886],
          [19.80051, 49.23851],
          [19.79899, 49.2384],
          [19.79729, 49.23757],
          [19.79593, 49.23716],
          [19.79441, 49.23646],
          [19.79276, 49.23622],
          [19.79175, 49.23634],
          [19.79079, 49.23598],
          [19.78965, 49.23587],
          [19.78904, 49.236],
          [19.78878, 49.23646],
          [19.78852, 49.23651],
          [19.78818, 49.23646],
          [19.78812, 49.23626],
          [19.78802, 49.23636],
          [19.78781, 49.23627],
          [19.78806, 49.2362],
          [19.78784, 49.23628],
          [19.78797, 49.23633],
          [19.78816, 49.23607],
          [19.78832, 49.23618],
          [19.78795, 49.23595],
          [19.78801, 49.23614],
          [19.78771, 49.23618],
          [19.78824, 49.23631],
          [19.78779, 49.23626],
          [19.78792, 49.23622],
          [19.78774, 49.23612],
          [19.78773, 49.23624],
          [19.7877, 49.23609],
          [19.7886, 49.23661],
          [19.78898, 49.23726],
          [19.78956, 49.23776],
          [19.79086, 49.23843],
          [19.79219, 49.2386],
          [19.79249, 49.23882],
          [19.79252, 49.23871],
          [19.79231, 49.23874],
          [19.7926, 49.23869],
          [19.79253, 49.239],
          [19.7926, 49.23872],
          [19.79291, 49.23877],
          [19.79284, 49.23856],
          [19.79388, 49.23641],
          [19.79461, 49.23654],
          [19.79548, 49.23703],
          [19.79695, 49.23744],
          [19.79887, 49.23842],
          [19.80037, 49.23853],
          [19.80168, 49.23884],
          [19.80273, 49.2393],
          [19.80337, 49.23926],
          [19.80429, 49.23953],
          [19.80504, 49.23952],
          [19.80627, 49.23981],
          [19.80643, 49.24026],
          [19.80678, 49.24038],
          [19.80747, 49.2415],
          [19.80848, 49.2419],
          [19.80913, 49.24237],
          [19.80959, 49.24244],
          [19.81057, 49.24316],
          [19.81181, 49.24472],
          [19.81286, 49.24559],
          [19.8127, 49.24601],
          [19.81286, 49.2465],
          [19.81403, 49.24793],
          [19.81487, 49.24977],
          [19.81479, 49.25031],
          [19.81529, 49.25248],
          [19.81534, 49.25391],
          [19.81518, 49.25413],
          [19.81546, 49.25606],
          [19.81546, 49.25699],
          [19.81492, 49.25814],
          [19.81658, 49.26169],
          [19.81588, 49.26607],
          [19.8163, 49.26751],
          [19.81687, 49.2683],
          [19.81967, 49.27117],
          [19.82031, 49.27145],
          [19.82154, 49.27253],
          [19.82423, 49.27391],
          [19.82549, 49.27484],
          [19.82641, 49.27499],
          [19.82821, 49.27579],
          [19.82998, 49.27609],
          [19.83129, 49.27659],
          [19.83298, 49.27766],
          [19.83492, 49.27815],
          [19.83879, 49.28015],
          [19.8479, 49.28805],
          [19.84808, 49.28811],
          [19.84839, 49.28792]
        ]
      }
    },
    {
      "type": "Feature",
      "properties": {
        "slug": "sk-krivan",
        "kind": "route",
        "name": "Kriváň",
        "country": "SK",
        "region": "Vysoké Tatry",
        "distance_m": 16017,
        "ascent_m": 1382,
        "descent_m": 1374,
        "loop": true,
        "strava_id": "7817701111",
        "strava_token": "qC3ivE9tntgcN5x54T9_AfbgIEcVI7qwlrmkubhmKVE",
        "parking": "https://maps.app.goo.gl/Uks5CB7bvjwixMVb6",
        "image": "image.webp",
        "weather_point": "kriváň_slovakia_724393",
        "sports": {
          "hike": {
            "duration_min": 500,
            "difficulty": "medium"
          }
        },
        "tags": ["okruh", "vrchol", "štít", "chata"],
        "description": {
          "sk": "Symbol Slovenska - na tento štít vedie bezpečná trasa z parkoviska Tri Studničky. Nie je potrebné liezť. Je možné sa vrátiť tou istou trasou alebo spraviť okruh cez Jamské pleso a odtiaľ späť na Tri Studničky. Práve cez Jamské pleso vedia ďalšia turistická trasa zo Štrbského plesa."
        }
      },
      "geometry": {
        "type": "LineString",
        "coordinates": [
          [19.96887, 49.1342],
          [19.97064, 49.13517],
          [19.9702, 49.13509],
          [19.96984, 49.13592],
          [19.96865, 49.1369],
          [19.96846, 49.13734],
          [19.96771, 49.13773],
          [19.96758, 49.13819],
          [19.96699, 49.13872],
          [19.96669, 49.13969],
          [19.96633, 49.13994],
          [19.96734, 49.14055],
          [19.96871, 49.14205],
          [19.96864, 49.14309],
          [19.96768, 49.14435],
          [19.9678, 49.14467],
          [19.96949, 49.14498],
          [19.96899, 49.14526],
          [19.96991, 49.1452],
          [19.96953, 49.1454],
          [19.96991, 49.14548],
          [19.96954, 49.14563],
          [19.96979, 49.14578],
          [19.96934, 49.14614],
          [19.97024, 49.14639],
          [19.96989, 49.14659],
          [19.97009, 49.14669],
          [19.97027, 49.1474],
          [19.96945, 49.14875],
          [19.97073, 49.1486],
          [19.96944, 49.14875],
          [19.96898, 49.15029],
          [19.97049, 49.14961],
          [19.97114, 49.1496],
          [19.97377, 49.15281],
          [19.97499, 49.15329],
          [19.97563, 49.15386],
          [19.97657, 49.15393],
          [19.97787, 49.15374],
          [19.97729, 49.15479],
          [19.97895, 49.15467],
          [19.98065, 49.15401],
          [19.97975, 49.15618],
          [19.98162, 49.15586],
          [19.98227, 49.15628],
          [19.9839, 49.15579],
          [19.98464, 49.15572],
          [19.98731, 49.1571],
          [19.9896, 49.15773],
          [19.99192, 49.15776],
          [19.99304, 49.15787],
          [19.99323, 49.15807],
          [19.99427, 49.15812],
          [19.9958, 49.15793],
          [19.99721, 49.15796],
          [19.99773, 49.15753],
          [19.99795, 49.15766],
          [19.99803, 49.15741],
          [19.9982, 49.15743],
          [19.99852, 49.15703],
          [19.99856, 49.15661],
          [19.99951, 49.15713],
          [19.99998, 49.15722],
          [19.99998, 49.15742],
          [20.00054, 49.15776],
          [20.00116, 49.15878],
          [20.00133, 49.15998],
          [20.00108, 49.16091],
          [20.00042, 49.16188],
          [20.00053, 49.16229],
          [20.0002, 49.16283],
          [20.00047, 49.1626],
          [20.00033, 49.16247],
          [20.00054, 49.16223],
          [20.00057, 49.16145],
          [20.00117, 49.16098],
          [20.00102, 49.16073],
          [20.00135, 49.15998],
          [20.0012, 49.15895],
          [20.00055, 49.15777],
          [20.00002, 49.15746],
          [19.99998, 49.1572],
          [19.99956, 49.15716],
          [19.99847, 49.15655],
          [19.99847, 49.15702],
          [19.99789, 49.15768],
          [19.99739, 49.15712],
          [19.99598, 49.15624],
          [19.99414, 49.15561],
          [19.99416, 49.15464],
          [19.99468, 49.15384],
          [19.99752, 49.1524],
          [19.99839, 49.15099],
          [19.9993, 49.15007],
          [19.99919, 49.14985],
          [19.99973, 49.14836],
          [19.99949, 49.1482],
          [19.99958, 49.14795],
          [19.99884, 49.14738],
          [19.99946, 49.1458],
          [19.99946, 49.14468],
          [20, 49.14275],
          [20.00106, 49.14126],
          [20.00099, 49.14003],
          [20.00133, 49.13935],
          [20.00239, 49.1384],
          [20.00443, 49.13813],
          [20.00546, 49.13823],
          [20.00588, 49.13807],
          [20.00702, 49.13748],
          [20.00875, 49.13583],
          [20.00969, 49.13651],
          [20.01065, 49.13534],
          [20.01053, 49.13517],
          [20.01087, 49.13479],
          [20.01264, 49.13424],
          [20.01284, 49.1335],
          [20.01228, 49.13361],
          [20.01224, 49.13352],
          [20.01182, 49.13374],
          [20.01154, 49.13367],
          [20.01187, 49.13243],
          [20.01086, 49.13246],
          [20.01041, 49.13206],
          [20.00855, 49.13221],
          [20.00715, 49.13202],
          [20.00661, 49.13224],
          [20.00598, 49.13184],
          [20.00378, 49.13231],
          [20.00062, 49.13357],
          [19.99881, 49.13463],
          [19.9941, 49.13658],
          [19.99285, 49.13731],
          [19.9921, 49.13754],
          [19.99151, 49.1375],
          [19.99039, 49.1377],
          [19.98743, 49.1376],
          [19.98601, 49.13651],
          [19.98445, 49.13657],
          [19.98398, 49.13676],
          [19.98342, 49.13729],
          [19.98209, 49.13759],
          [19.98057, 49.1375],
          [19.97938, 49.13718],
          [19.97814, 49.13735],
          [19.97766, 49.13759],
          [19.97684, 49.13745],
          [19.9758, 49.13753],
          [19.97485, 49.13715],
          [19.97386, 49.13708],
          [19.97328, 49.13662],
          [19.97073, 49.13568],
          [19.96967, 49.13458]
        ]
      }
    },
    {
      "type": "Feature",
      "properties": {
        "slug": "sk-predne-solisko",
        "kind": "route",
        "name": "Predné Solisko",
        "country": "SK",
        "region": "Vysoké Tatry",
        "distance_m": 7683,
        "ascent_m": 763,
        "descent_m": 725,
        "loop": false,
        "strava_id": "15604962297",
        "strava_token": "KFDgdpHsWNSqVmcwBD3Xr2VaC0PsDjA20o50N_8IZw0",
        "parking": "https://maps.app.goo.gl/sqBsjyAUMthkSTEw7",
        "image": "image.webp",
        "weather_point": "predné-solisko_slovakia_9958212",
        "sports": {
          "hike": {
            "duration_min": 270,
            "difficulty": "medium"
          }
        },
        "tags": ["tam a späť", "chata", "vrchol", "štít"],
        "description": {
          "sk": "Najľahšia dvojtisícka vo Vysokých Tatrách. Zo Štrbského plesa trasa stúpa po zjazdovke k Chate pod Soliskom. Tu je možné príst aj lanovkou. Od nej to je chvíľa, možno pol hodina pomaly na vrchol Predné Solisko."
        }
      },
      "geometry": {
        "type": "LineString",
        "coordinates": [
          [20.06277, 49.11995],
          [20.06272, 49.1202],
          [20.06313, 49.12062],
          [20.06265, 49.12086],
          [20.06164, 49.11998],
          [20.06093, 49.11982],
          [20.06086, 49.1205],
          [20.06057, 49.12089],
          [20.06091, 49.12099],
          [20.06053, 49.12086],
          [20.0604, 49.12111],
          [20.06045, 49.12147],
          [20.06069, 49.12151],
          [20.061, 49.12195],
          [20.06204, 49.12251],
          [20.06215, 49.12311],
          [20.0613, 49.12352],
          [20.05934, 49.12412],
          [20.05861, 49.12469],
          [20.05688, 49.12484],
          [20.05637, 49.12575],
          [20.05609, 49.12588],
          [20.05483, 49.1276],
          [20.05272, 49.12988],
          [20.05233, 49.13073],
          [20.05161, 49.1315],
          [20.05006, 49.133],
          [20.04754, 49.13434],
          [20.04748, 49.13497],
          [20.04789, 49.13546],
          [20.04774, 49.13593],
          [20.04418, 49.13982],
          [20.04387, 49.14037],
          [20.04392, 49.14089],
          [20.04247, 49.14274],
          [20.04166, 49.14322],
          [20.04149, 49.14361],
          [20.04165, 49.14384],
          [20.04101, 49.14397],
          [20.04043, 49.14486],
          [20.03987, 49.14513],
          [20.04067, 49.14608],
          [20.0403, 49.14637],
          [20.04001, 49.14735],
          [20.03951, 49.14814],
          [20.03963, 49.14853],
          [20.0394, 49.14864],
          [20.03891, 49.14975],
          [20.03908, 49.14975],
          [20.03917, 49.14936],
          [20.03943, 49.14918],
          [20.03929, 49.14889],
          [20.03999, 49.14753],
          [20.03985, 49.14742],
          [20.04023, 49.14651],
          [20.04061, 49.14606],
          [20.0403, 49.14578],
          [20.04031, 49.14546],
          [20.03994, 49.14522],
          [20.04898, 49.13427],
          [20.04991, 49.13344],
          [20.05043, 49.13258],
          [20.05264, 49.13057],
          [20.05331, 49.13042],
          [20.05405, 49.12993],
          [20.05455, 49.12944],
          [20.05484, 49.1287],
          [20.05544, 49.12863],
          [20.05497, 49.12864],
          [20.05627, 49.12805],
          [20.05666, 49.12834],
          [20.05754, 49.12847]
        ]
      }
    },
    {
      "type": "Feature",
      "properties": {
        "slug": "sk-rysy",
        "kind": "route",
        "name": "Rysy",
        "country": "SK",
        "region": "Vysoké Tatry",
        "distance_m": 22178,
        "ascent_m": 1447,
        "descent_m": 1450,
        "loop": true,
        "strava_id": "6058842052",
        "strava_token": "GZaA0lzQ0XT43bPUIBuuDHr_nLb-C7DAKCLIskM4jBk",
        "parking": "https://maps.app.goo.gl/sqBsjyAUMthkSTEw7",
        "image": "image.webp",
        "weather_point": "rysy_poland_759825",
        "sports": {
          "hike": {
            "duration_min": 500,
            "difficulty": "medium"
          }
        },
        "tags": ["tam a späť", "chata", "vrchol", "štít", "najvyšší vrchol"],
        "description": {
          "sk": "Najvyšší vrch Poľska - Rysy. Zo Štrbského plesa trasa začína zľahka na Popradské pleso. Tu je možnosť prvého občerstvenia. Z plesa trasa stúpa Mengusovskou dolinou k rázcestníku. Doľava je Kôprovský štít, vpravo Rysy. Od Veľkého Žabieho plesa mengusovského začína skalnatý terén a aj rebríky. Tu sa často tvoria zápchy. Od neho to už nie je ďaleko na Slobodné kráľovstvo Rysy - Chata pod Rysmi. Toto je najvyššie položená vysokohorská chata na Slovensku. Od nej na vrchol už nie je ďaleko. Dole po tej istej trase."
        }
      },
      "geometry": {
        "type": "LineString",
        "coordinates": [
          [20.06475, 49.11989],
          [20.06368, 49.11972],
          [20.06388, 49.12008],
          [20.06346, 49.12026],
          [20.06358, 49.12056],
          [20.0632, 49.12096],
          [20.06402, 49.12282],
          [20.06399, 49.12327],
          [20.06439, 49.1232],
          [20.06542, 49.12409],
          [20.06519, 49.12462],
          [20.06559, 49.12486],
          [20.06582, 49.12608],
          [20.06502, 49.12982],
          [20.06435, 49.1313],
          [20.06388, 49.13368],
          [20.0641, 49.13434],
          [20.06456, 49.13489],
          [20.06663, 49.13593],
          [20.06728, 49.13682],
          [20.06712, 49.13811],
          [20.06739, 49.13853],
          [20.06742, 49.13927],
          [20.06786, 49.13961],
          [20.06801, 49.14042],
          [20.06858, 49.14156],
          [20.06894, 49.1439],
          [20.06926, 49.14437],
          [20.06911, 49.14505],
          [20.06937, 49.1464],
          [20.06909, 49.14673],
          [20.06966, 49.14744],
          [20.06964, 49.14856],
          [20.07087, 49.1492],
          [20.07101, 49.14968],
          [20.07063, 49.15053],
          [20.07113, 49.15109],
          [20.07448, 49.15252],
          [20.075, 49.15311],
          [20.07547, 49.15304],
          [20.07586, 49.15317],
          [20.07654, 49.15422],
          [20.07707, 49.1541],
          [20.07765, 49.15435],
          [20.07771, 49.15424],
          [20.07828, 49.15442],
          [20.07859, 49.15429],
          [20.0774, 49.15429],
          [20.07685, 49.15521],
          [20.07615, 49.15564],
          [20.07566, 49.15747],
          [20.07458, 49.15887],
          [20.07353, 49.15936],
          [20.07331, 49.16033],
          [20.07249, 49.16116],
          [20.07187, 49.16219],
          [20.07191, 49.16244],
          [20.07103, 49.16311],
          [20.07149, 49.16399],
          [20.07089, 49.16451],
          [20.07091, 49.16484],
          [20.0721, 49.16563],
          [20.07274, 49.16553],
          [20.07323, 49.16564],
          [20.07384, 49.16533],
          [20.07231, 49.1667],
          [20.07266, 49.16706],
          [20.07299, 49.16701],
          [20.07277, 49.16719],
          [20.07297, 49.1672],
          [20.07307, 49.1675],
          [20.07338, 49.16742],
          [20.07337, 49.16796],
          [20.07387, 49.16827],
          [20.07419, 49.16824],
          [20.07422, 49.1677],
          [20.07458, 49.16748],
          [20.0749, 49.16804],
          [20.07513, 49.16744],
          [20.07533, 49.16757],
          [20.07542, 49.16747],
          [20.07552, 49.16769],
          [20.07568, 49.16764],
          [20.07587, 49.16851],
          [20.07626, 49.16832],
          [20.07634, 49.16852],
          [20.07656, 49.16844],
          [20.07654, 49.16926],
          [20.07684, 49.16943],
          [20.07729, 49.17025],
          [20.07783, 49.17048],
          [20.08087, 49.17314],
          [20.08161, 49.17485],
          [20.08185, 49.17485],
          [20.08179, 49.17513],
          [20.08212, 49.17495],
          [20.08213, 49.17518],
          [20.08256, 49.17479],
          [20.08261, 49.17496],
          [20.08318, 49.17486],
          [20.08273, 49.17385],
          [20.08306, 49.17339],
          [20.08397, 49.1733],
          [20.08446, 49.1735],
          [20.08571, 49.17336],
          [20.08595, 49.17397],
          [20.08685, 49.17422],
          [20.08716, 49.17468],
          [20.08703, 49.17424],
          [20.08716, 49.17451],
          [20.08706, 49.17442],
          [20.08735, 49.1744],
          [20.08709, 49.17448],
          [20.0873, 49.17463],
          [20.08738, 49.17445],
          [20.0872, 49.17465],
          [20.08751, 49.17451],
          [20.08723, 49.17442],
          [20.08711, 49.17464],
          [20.08733, 49.17454],
          [20.08732, 49.17471],
          [20.08735, 49.17445],
          [20.0871, 49.17476],
          [20.08699, 49.17453],
          [20.08723, 49.17486],
          [20.08709, 49.1745],
          [20.08733, 49.17478],
          [20.08724, 49.17445],
          [20.08733, 49.17474],
          [20.08719, 49.17462],
          [20.08733, 49.17455],
          [20.08716, 49.17471],
          [20.08698, 49.17453],
          [20.08684, 49.17458],
          [20.0873, 49.17455],
          [20.08726, 49.17485],
          [20.08763, 49.17519],
          [20.0887, 49.1756],
          [20.0896, 49.17562],
          [20.08926, 49.17601],
          [20.08965, 49.17613],
          [20.08964, 49.17647],
          [20.08936, 49.17649],
          [20.08937, 49.17673],
          [20.08894, 49.17682],
          [20.08916, 49.17714],
          [20.089, 49.1773],
          [20.08847, 49.17733],
          [20.08817, 49.17784],
          [20.08797, 49.17779],
          [20.08777, 49.17918],
          [20.08818, 49.17947],
          [20.08805, 49.17957],
          [20.0882, 49.17933],
          [20.08775, 49.17909],
          [20.08807, 49.17805],
          [20.08794, 49.17777],
          [20.08828, 49.17773],
          [20.08836, 49.17737],
          [20.0892, 49.17716],
          [20.08895, 49.1768],
          [20.08942, 49.17671],
          [20.08936, 49.17648],
          [20.08965, 49.17644],
          [20.08965, 49.17613],
          [20.08923, 49.17598],
          [20.08953, 49.17554],
          [20.08869, 49.17553],
          [20.08763, 49.17513],
          [20.0872, 49.17475],
          [20.08727, 49.17451],
          [20.08703, 49.17448],
          [20.08727, 49.17427],
          [20.0869, 49.17427],
          [20.08698, 49.17411],
          [20.08675, 49.1741],
          [20.08719, 49.17414],
          [20.08707, 49.17442],
          [20.08685, 49.17446],
          [20.08714, 49.17442],
          [20.08674, 49.17432],
          [20.08684, 49.17424],
          [20.08644, 49.17396],
          [20.08582, 49.17392],
          [20.0859, 49.17356],
          [20.08563, 49.17334],
          [20.0842, 49.1735],
          [20.08355, 49.17326],
          [20.08329, 49.17343],
          [20.08324, 49.17333],
          [20.08282, 49.17345],
          [20.08271, 49.17384],
          [20.08296, 49.17499],
          [20.08271, 49.1748],
          [20.08256, 49.17493],
          [20.08255, 49.17474],
          [20.08215, 49.1752],
          [20.08208, 49.17489],
          [20.08173, 49.17509],
          [20.08182, 49.17483],
          [20.08162, 49.17486],
          [20.08162, 49.17458],
          [20.08122, 49.1741],
          [20.08134, 49.1738],
          [20.08095, 49.17354],
          [20.08084, 49.17313],
          [20.07873, 49.17118],
          [20.07826, 49.17096],
          [20.07788, 49.17046],
          [20.07757, 49.17043],
          [20.07723, 49.17013],
          [20.07685, 49.16945],
          [20.07655, 49.16927],
          [20.07666, 49.16875],
          [20.07647, 49.16839],
          [20.07626, 49.16852],
          [20.07614, 49.16828],
          [20.07581, 49.16849],
          [20.0756, 49.1675],
          [20.07542, 49.16767],
          [20.0751, 49.16739],
          [20.07483, 49.16804],
          [20.0745, 49.16746],
          [20.07403, 49.16777],
          [20.07405, 49.16823],
          [20.07379, 49.16826],
          [20.07327, 49.16794],
          [20.0733, 49.16743],
          [20.0725, 49.16709],
          [20.07215, 49.16661],
          [20.07343, 49.1657],
          [20.07371, 49.1653],
          [20.073, 49.16561],
          [20.07267, 49.1655],
          [20.07198, 49.1656],
          [20.07151, 49.1651],
          [20.07089, 49.16484],
          [20.07085, 49.1645],
          [20.07141, 49.16396],
          [20.07098, 49.16312],
          [20.07155, 49.16257],
          [20.07185, 49.16251],
          [20.07184, 49.16217],
          [20.07327, 49.16027],
          [20.07355, 49.15939],
          [20.07452, 49.1589],
          [20.0751, 49.15834],
          [20.07595, 49.15688],
          [20.07607, 49.15582],
          [20.07689, 49.15534],
          [20.07729, 49.15435],
          [20.07769, 49.15419],
          [20.07702, 49.15407],
          [20.07651, 49.15424],
          [20.07647, 49.1538],
          [20.07591, 49.15313],
          [20.07551, 49.15299],
          [20.07503, 49.15313],
          [20.07455, 49.15257],
          [20.07128, 49.15122],
          [20.07075, 49.15073],
          [20.07096, 49.14928],
          [20.07074, 49.14902],
          [20.06969, 49.14856],
          [20.06964, 49.14738],
          [20.06914, 49.14682],
          [20.06939, 49.14637],
          [20.06913, 49.14537],
          [20.06931, 49.14453],
          [20.06901, 49.1439],
          [20.06867, 49.14168],
          [20.06806, 49.1405],
          [20.06795, 49.13962],
          [20.06759, 49.13922],
          [20.06755, 49.13834],
          [20.06729, 49.13798],
          [20.06742, 49.13675],
          [20.06673, 49.13588],
          [20.0646, 49.13488],
          [20.06412, 49.13439],
          [20.06414, 49.13401],
          [20.06388, 49.13369],
          [20.06395, 49.13285],
          [20.06503, 49.12982],
          [20.06579, 49.12615],
          [20.06558, 49.12579],
          [20.06561, 49.12505],
          [20.06513, 49.12465],
          [20.06541, 49.12414],
          [20.06403, 49.12295],
          [20.06319, 49.12091],
          [20.06298, 49.12087],
          [20.06363, 49.1205],
          [20.06348, 49.12024],
          [20.06372, 49.12002],
          [20.06369, 49.11973],
          [20.06526, 49.11999],
          [20.06522, 49.1201]
        ]
      }
    },
    {
      "type": "Feature",
      "properties": {
        "slug": "sk-slavkovsky-stit",
        "kind": "route",
        "name": "Slavkovský štít",
        "country": "SK",
        "region": "Vysoké Tatry",
        "distance_m": 17389,
        "ascent_m": 1470,
        "descent_m": 1471,
        "loop": true,
        "strava_id": "9796195655",
        "strava_token": "HeDCnRmdeAV8hY9MhBbs9OS-PM37IAtN9yUWBTWUmTw",
        "parking": "https://maps.app.goo.gl/TzN2Hr66z87y7GaM9",
        "image": "image.webp",
        "weather_point": "slavkovský-štít_slovakia_723587",
        "sports": {
          "hike": {
            "duration_min": 540,
            "difficulty": "medium"
          }
        },
        "tags": ["tam a späť", "chata", "vrchol", "štít"],
        "description": {
          "sk": "Krásny turistický dostupný štít. Z parkoviska v Starom Smokovci sa dá ísť buď na Hrebienok alebo na Rázcestie pod Slavkovským Štítom. Z neho len po modrej na samotný vrchol. Trasa je od polovice skalnatá. Tu sa značka stráca medzi kameňmi a preto odporúčam sledovať navigáciu. Odporúčam veľa vody - chata je až pri zostupe na Hrebienku. Z vrcholu je krásne vidno suseda - Gerlach. Svojho času sa tu dalo ísť so psami."
        }
      },
      "geometry": {
        "type": "LineString",
        "coordinates": [
          [20.21868, 49.13666],
          [20.21931, 49.13691],
          [20.21877, 49.13746],
          [20.21885, 49.13773],
          [20.22032, 49.13836],
          [20.22031, 49.13921],
          [20.22076, 49.13991],
          [20.22076, 49.1401],
          [20.22034, 49.14037],
          [20.22037, 49.14066],
          [20.22006, 49.14083],
          [20.22029, 49.1412],
          [20.21985, 49.14164],
          [20.21894, 49.14339],
          [20.21905, 49.144],
          [20.2172, 49.14522],
          [20.21668, 49.14611],
          [20.21616, 49.14652],
          [20.21605, 49.14715],
          [20.21495, 49.14782],
          [20.21484, 49.14818],
          [20.2142, 49.14876],
          [20.21252, 49.14875],
          [20.21226, 49.14911],
          [20.21179, 49.14917],
          [20.20976, 49.14859],
          [20.20877, 49.14857],
          [20.20846, 49.14898],
          [20.20914, 49.14955],
          [20.20825, 49.14974],
          [20.2085, 49.15007],
          [20.20801, 49.15023],
          [20.20967, 49.15111],
          [20.21054, 49.15194],
          [20.21107, 49.15371],
          [20.21015, 49.15353],
          [20.21086, 49.15494],
          [20.21082, 49.15521],
          [20.21135, 49.15579],
          [20.21145, 49.15702],
          [20.21183, 49.15722],
          [20.21217, 49.1578],
          [20.21214, 49.15819],
          [20.21301, 49.15908],
          [20.21604, 49.16116],
          [20.21736, 49.16245],
          [20.21649, 49.16247],
          [20.21428, 49.16198],
          [20.21304, 49.16206],
          [20.21366, 49.16334],
          [20.21112, 49.16308],
          [20.21099, 49.16324],
          [20.21136, 49.16387],
          [20.21105, 49.16427],
          [20.20946, 49.16392],
          [20.20923, 49.16433],
          [20.20761, 49.16364],
          [20.20625, 49.16346],
          [20.2068, 49.16417],
          [20.20683, 49.16457],
          [20.20516, 49.16415],
          [20.20382, 49.16422],
          [20.20341, 49.16439],
          [20.20198, 49.16421],
          [20.20131, 49.16434],
          [20.20021, 49.1643],
          [20.19911, 49.16344],
          [20.19891, 49.16349],
          [20.19896, 49.16404],
          [20.19811, 49.16357],
          [20.19817, 49.16379],
          [20.19721, 49.16358],
          [20.19728, 49.16377],
          [20.19571, 49.16359],
          [20.1949, 49.16375],
          [20.19319, 49.16363],
          [20.19299, 49.16372],
          [20.19203, 49.1635],
          [20.19204, 49.16395],
          [20.19128, 49.16412],
          [20.19111, 49.1643],
          [20.19083, 49.16426],
          [20.19028, 49.16468],
          [20.19035, 49.16512],
          [20.18913, 49.16561],
          [20.18791, 49.1654],
          [20.18796, 49.1656],
          [20.18758, 49.16576],
          [20.18699, 49.16576],
          [20.18703, 49.16595],
          [20.18643, 49.16635],
          [20.18545, 49.16604],
          [20.18447, 49.16606],
          [20.18549, 49.16606],
          [20.18646, 49.16635],
          [20.18658, 49.16613],
          [20.18703, 49.16599],
          [20.18708, 49.16571],
          [20.18761, 49.16576],
          [20.18823, 49.16542],
          [20.18916, 49.1656],
          [20.19037, 49.1651],
          [20.19046, 49.16454],
          [20.19076, 49.1643],
          [20.19203, 49.16392],
          [20.19203, 49.16348],
          [20.19292, 49.16369],
          [20.19318, 49.16355],
          [20.19484, 49.16372],
          [20.19538, 49.16358],
          [20.19734, 49.16378],
          [20.19722, 49.16359],
          [20.19812, 49.16355],
          [20.19898, 49.16407],
          [20.19901, 49.1634],
          [20.19996, 49.164],
          [20.2002, 49.16431],
          [20.20006, 49.16444],
          [20.2004, 49.16427],
          [20.20202, 49.1642],
          [20.20346, 49.16438],
          [20.2038, 49.1642],
          [20.20504, 49.16414],
          [20.20627, 49.16448],
          [20.20635, 49.16427],
          [20.20686, 49.16454],
          [20.20695, 49.1644],
          [20.20629, 49.16339],
          [20.20765, 49.16364],
          [20.20925, 49.16434],
          [20.20944, 49.1639],
          [20.21074, 49.16413],
          [20.21104, 49.16432],
          [20.21136, 49.1639],
          [20.211, 49.1632],
          [20.21111, 49.16307],
          [20.21366, 49.16333],
          [20.21296, 49.16207],
          [20.21381, 49.16195],
          [20.21572, 49.16222],
          [20.2164, 49.16248],
          [20.21738, 49.16243],
          [20.21535, 49.16057],
          [20.2131, 49.15908],
          [20.21218, 49.15817],
          [20.2123, 49.15802],
          [20.21191, 49.15723],
          [20.21172, 49.15704],
          [20.21147, 49.15705],
          [20.21134, 49.15572],
          [20.21085, 49.1552],
          [20.21016, 49.15354],
          [20.21148, 49.15482],
          [20.21241, 49.15546],
          [20.21307, 49.1557],
          [20.21308, 49.15593],
          [20.21443, 49.15557],
          [20.21553, 49.15569],
          [20.21651, 49.15661],
          [20.21881, 49.15761],
          [20.22186, 49.15811],
          [20.22383, 49.15878],
          [20.22441, 49.1588],
          [20.22511, 49.15796],
          [20.22481, 49.15757],
          [20.22425, 49.15571],
          [20.22375, 49.15492],
          [20.22363, 49.15396],
          [20.22276, 49.15269],
          [20.22259, 49.15206],
          [20.22286, 49.15135],
          [20.2233, 49.151],
          [20.2234, 49.15045],
          [20.22294, 49.14945],
          [20.22304, 49.14816],
          [20.22256, 49.14718],
          [20.21995, 49.14467],
          [20.21968, 49.14313],
          [20.22001, 49.14245],
          [20.22103, 49.14158],
          [20.22018, 49.14086],
          [20.22052, 49.14063],
          [20.22086, 49.13987],
          [20.22047, 49.13961],
          [20.22036, 49.13826],
          [20.21886, 49.13773],
          [20.21888, 49.13742],
          [20.21935, 49.13687],
          [20.21858, 49.13661],
          [20.21883, 49.13611]
        ]
      }
    }
  ]
}
